{"type":"FeatureCollection","features":[{"type":"Feature","properties":{},"geometry":{"type":"Polygon","coordinates":[[[-78.693973,-1.660923],[-78.694287,-1.660258],[-78.695509,-1.659343],[-78.697423,-1.658777],[-78.697782,-1.657645],[-78.696506,-1.656092],[-78.696264,-1.655535],[-78.695231,-1.655877],[-78.69506,-1.655796],[-78.693829,-1.654296],[-78.694844,-1.653335],[-78.692383,-1.650695],[-78.692895,-1.650157],[-78.692122,-1.650013],[-78.692239,-1.64907],[-78.690604,-1.64916],[-78.696488,-1.630537],[-78.685143,-1.623362],[-78.684074,-1.623506],[-78.682924,-1.624233],[-78.682501,-1.624808],[-78.682627,-1.625337],[-78.682241,-1.625454],[-78.682295,-1.625849],[-78.6811,-1.626343],[-78.679932,-1.627852],[-78.678881,-1.628669],[-78.678729,-1.629297],[-78.678019,-1.630339],[-78.678118,-1.630689],[-78.677758,-1.631632],[-78.677309,-1.632153],[-78.677174,-1.632853],[-78.677435,-1.633401],[-78.676393,-1.634335],[-78.675737,-1.634389],[-78.67518,-1.634748],[-78.675306,-1.635323],[-78.675162,-1.635583],[-78.675171,-1.636643],[-78.67501,-1.637433],[-78.674489,-1.637846],[-78.674228,-1.638394],[-78.673581,-1.638232],[-78.673527,-1.638699],[-78.673069,-1.638537],[-78.672234,-1.638932],[-78.671901,-1.638941],[-78.671488,-1.639426],[-78.671291,-1.639363],[-78.671282,-1.639076],[-78.670716,-1.638546],[-78.670491,-1.638816],[-78.66935,-1.638474],[-78.66891,-1.638726],[-78.668344,-1.638492],[-78.666997,-1.638456],[-78.666835,-1.639139],[-78.666502,-1.639336],[-78.666125,-1.639956],[-78.665694,-1.640234],[-78.665667,-1.640441],[-78.665065,-1.641069],[-78.664886,-1.641671],[-78.664275,-1.64265],[-78.663619,-1.643269],[-78.66334,-1.643386],[-78.662604,-1.643099],[-78.661876,-1.643269],[-78.660717,-1.643153],[-78.659999,-1.643422],[-78.659621,-1.643898],[-78.659406,-1.644625],[-78.658355,-1.645541],[-78.656855,-1.645568],[-78.656486,-1.646304],[-78.656001,-1.646376],[-78.655597,-1.646008],[-78.654465,-1.646296],[-78.654088,-1.647382],[-78.652929,-1.648433],[-78.652255,-1.64854],[-78.651824,-1.648244],[-78.651249,-1.648334],[-78.650234,-1.647813],[-78.649452,-1.646942],[-78.648689,-1.646691],[-78.64806,-1.646161],[-78.647404,-1.645999],[-78.647153,-1.646125],[-78.64674,-1.645882],[-78.646515,-1.645541],[-78.646192,-1.645407],[-78.645976,-1.644895],[-78.644934,-1.643539],[-78.64488,-1.643036],[-78.645329,-1.642138],[-78.645239,-1.641788],[-78.644718,-1.641491],[-78.643524,-1.641204],[-78.6432,-1.640647],[-78.642526,-1.640234],[-78.642005,-1.639408],[-78.641439,-1.639175],[-78.641089,-1.638555],[-78.640649,-1.638564],[-78.639679,-1.639633],[-78.638727,-1.63966],[-78.63843,-1.63904],[-78.637918,-1.638852],[-78.641826,-1.647247],[-78.640002,-1.648091],[-78.638924,-1.648953],[-78.637226,-1.649582],[-78.637622,-1.650668],[-78.637756,-1.65162],[-78.637541,-1.652491],[-78.637577,-1.65417],[-78.636957,-1.655607],[-78.636939,-1.656308],[-78.636544,-1.657206],[-78.635708,-1.658121],[-78.634343,-1.656963],[-78.633355,-1.658561],[-78.633957,-1.659001],[-78.633328,-1.659298],[-78.631971,-1.660734],[-78.631262,-1.660743],[-78.631046,-1.660923],[-78.633597,-1.662728],[-78.63481,-1.662943],[-78.635448,-1.66324],[-78.633453,-1.666131],[-78.631154,-1.671303],[-78.63057,-1.672282],[-78.629375,-1.673575],[-78.628441,-1.67494],[-78.626042,-1.680776],[-78.625369,-1.681854],[-78.625324,-1.682725],[-78.62562,-1.684934],[-78.626375,-1.68585],[-78.626905,-1.686819],[-78.624982,-1.688023],[-78.624605,-1.687618],[-78.623554,-1.688175],[-78.624398,-1.689513],[-78.625144,-1.68928],[-78.628719,-1.69394],[-78.631935,-1.68945],[-78.632914,-1.689971],[-78.635061,-1.690187],[-78.63613,-1.690061],[-78.637397,-1.689468],[-78.64099,-1.693473],[-78.643434,-1.691156],[-78.643964,-1.690321],[-78.644521,-1.690483],[-78.645159,-1.691444],[-78.646066,-1.692297],[-78.647144,-1.692306],[-78.647512,-1.691704],[-78.647431,-1.691067],[-78.647557,-1.690896],[-78.647871,-1.690932],[-78.648159,-1.690752],[-78.649318,-1.688642],[-78.651025,-1.68866],[-78.651537,-1.688184],[-78.652821,-1.687888],[-78.653702,-1.686972],[-78.654258,-1.685778],[-78.654986,-1.68576],[-78.656513,-1.683802],[-78.657474,-1.683721],[-78.65769,-1.683335],[-78.658418,-1.682985],[-78.659154,-1.682967],[-78.660142,-1.683246],[-78.66202,-1.683102],[-78.662442,-1.683344],[-78.662649,-1.684045],[-78.663026,-1.684449],[-78.663727,-1.684763],[-78.665299,-1.684871],[-78.66564,-1.68461],[-78.666494,-1.684646],[-78.666898,-1.68444],[-78.667437,-1.684431],[-78.668084,-1.684583],[-78.668919,-1.685149],[-78.66979,-1.685221],[-78.670186,-1.685769],[-78.671084,-1.686002],[-78.671497,-1.686325],[-78.671722,-1.686963],[-78.672117,-1.687196],[-78.672162,-1.687744],[-78.672872,-1.688489],[-78.673464,-1.688786],[-78.673464,-1.688965],[-78.673132,-1.689262],[-78.673267,-1.690546],[-78.672872,-1.691129],[-78.673123,-1.691973],[-78.673527,-1.692575],[-78.673168,-1.693338],[-78.673312,-1.693662],[-78.673923,-1.693751],[-78.674246,-1.694434],[-78.674417,-1.6957],[-78.674821,-1.695709],[-78.675836,-1.694865],[-78.675764,-1.694739],[-78.676007,-1.694272],[-78.676276,-1.694182],[-78.676375,-1.694335],[-78.676519,-1.69429],[-78.67695,-1.693706],[-78.678163,-1.693688],[-78.678037,-1.692719],[-78.678217,-1.692135],[-78.678944,-1.691381],[-78.679061,-1.690959],[-78.679438,-1.691318],[-78.680346,-1.690231],[-78.680355,-1.690007],[-78.680678,-1.689836],[-78.680363,-1.689405],[-78.680894,-1.688894],[-78.680346,-1.688777],[-78.679735,-1.688238],[-78.679816,-1.688076],[-78.679609,-1.687879],[-78.679986,-1.687466],[-78.679384,-1.686927],[-78.67986,-1.686433],[-78.679582,-1.685688],[-78.680166,-1.685176],[-78.679744,-1.684988],[-78.679995,-1.684135],[-78.681118,-1.682626],[-78.680346,-1.682428],[-78.679609,-1.683353],[-78.678989,-1.683326],[-78.678998,-1.68347],[-78.678414,-1.683865],[-78.677651,-1.684027],[-78.677453,-1.684054],[-78.677264,-1.683811],[-78.676411,-1.684485],[-78.676222,-1.684817],[-78.675638,-1.685122],[-78.675504,-1.685463],[-78.674372,-1.684898],[-78.672943,-1.684799],[-78.672342,-1.684458],[-78.671901,-1.684467],[-78.671165,-1.684117],[-78.670689,-1.684072],[-78.670069,-1.683569],[-78.668802,-1.683398],[-78.665802,-1.682393],[-78.663763,-1.682482],[-78.663412,-1.682357],[-78.663017,-1.682428],[-78.662712,-1.682177],[-78.663143,-1.681979],[-78.663664,-1.681997],[-78.663718,-1.681827],[-78.66352,-1.680722],[-78.66405,-1.679151],[-78.663906,-1.678828],[-78.663969,-1.67802],[-78.663682,-1.677643],[-78.663718,-1.677391],[-78.66449,-1.676754],[-78.664661,-1.676933],[-78.664832,-1.676888],[-78.664535,-1.675434],[-78.664903,-1.674751],[-78.665595,-1.674203],[-78.665964,-1.673341],[-78.666305,-1.673297],[-78.666952,-1.671465],[-78.667311,-1.671617],[-78.667616,-1.671555],[-78.667967,-1.670971],[-78.668191,-1.670872],[-78.6682,-1.670495],[-78.668425,-1.670208],[-78.669153,-1.67027],[-78.669575,-1.670091],[-78.66926,-1.669364],[-78.669162,-1.668376],[-78.668119,-1.667262],[-78.66962,-1.667505],[-78.670087,-1.667406],[-78.677821,-1.66464],[-78.683112,-1.664272],[-78.68437,-1.663383],[-78.685232,-1.663078],[-78.686041,-1.662117],[-78.686445,-1.661875],[-78.688529,-1.661336],[-78.689697,-1.661498],[-78.691404,-1.661085],[-78.692104,-1.661893],[-78.693371,-1.662252],[-78.693973,-1.660923]]]}}]}