{"type": "FeatureCollection", "_fuente": "Division politico administrativa del geoportal de CNT EP", "_nota": "Parroquias de Chimborazo (codigo DPA 06*). Geometria simplificada; sirve de mascara de recorte, no como limite legal.", "features": [{"type": "Feature", "properties": {"dpa": "060251", "nombre": "Achupallas"}, "geometry": {"type": "Polygon", "coordinates": [[[-78.6781, -2.192], [-78.6512, -2.1905], [-78.6324, -2.1987], [-78.6272, -2.1995], [-78.6265, -2.1972], [-78.6278, -2.1921], [-78.6249, -2.1904], [-78.6236, -2.1851], [-78.6207, -2.1815], [-78.6206, -2.1858], [-78.6191, -2.1889], [-78.6198, -2.1926], [-78.6177, -2.1953], [-78.6126, -2.1982], [-78.6102, -2.2021], [-78.593, -2.2005], [-78.585, -2.202], [-78.5815, -2.2039], [-78.572, -2.2033], [-78.5702, -2.2061], [-78.5687, -2.206], [-78.5746, -2.2114], [-78.577, -2.2224], [-78.5749, -2.224], [-78.5693, -2.2236], [-78.5663, -2.2255], [-78.5599, -2.2233], [-78.5561, -2.2297], [-78.553, -2.2297], [-78.5485, -2.2362], [-78.5403, -2.2386], [-78.5353, -2.237], [-78.5341, -2.2403], [-78.5317, -2.2424], [-78.5419, -2.2481], [-78.5439, -2.2532], [-78.5427, -2.2575], [-78.5385, -2.2638], [-78.5381, -2.2684], [-78.5394, -2.2711], [-78.5361, -2.2787], [-78.5472, -2.292], [-78.5459, -2.3001], [-78.5502, -2.3015], [-78.5518, -2.3054], [-78.5569, -2.3068], [-78.5627, -2.3074], [-78.5668, -2.3052], [-78.5767, -2.3054], [-78.5849, -2.3108], [-78.5868, -2.3186], [-78.582, -2.3225], [-78.5811, -2.3289], [-78.5775, -2.3307], [-78.5756, -2.3305], [-78.5716, -2.3256], [-78.5671, -2.3269], [-78.5613, -2.3259], [-78.5536, -2.3342], [-78.5495, -2.3354], [-78.5459, -2.3351], [-78.5359, -2.3415], [-78.5246, -2.3546], [-78.5176, -2.3544], [-78.5053, -2.3601], [-78.4967, -2.361], [-78.4851, -2.3657], [-78.4841, -2.3697], [-78.4874, -2.3829], [-78.4845, -2.3882], [-78.4904, -2.3972], [-78.4908, -2.4007], [-78.4894, -2.4042], [-78.4843, -2.4116], [-78.4782, -2.4171], [-78.4748, -2.4172], [-78.4683, -2.4145], [-78.4609, -2.4162], [-78.4585, -2.4181], [-78.4588, -2.4225], [-78.4729, -2.4269], [-78.4842, -2.4363], [-78.4859, -2.4423], [-78.4841, -2.446], [-78.4855, -2.4476], [-78.488, -2.4482], [-78.4832, -2.4513], [-78.4816, -2.4551], [-78.4833, -2.4568], [-78.4845, -2.4653], [-78.4873, -2.4686], [-78.488, -2.4761], [-78.4931, -2.4873], [-78.4944, -2.4959], [-78.4976, -2.5028], [-78.4977, -2.5065], [-78.5031, -2.5159], [-78.5074, -2.5311], [-78.5122, -2.5417], [-78.5191, -2.5477], [-78.5229, -2.5532], [-78.5268, -2.5565], [-78.5288, -2.563], [-78.5325, -2.564], [-78.5367, -2.5671], [-78.5393, -2.5675], [-78.5476, -2.5594], [-78.553, -2.5579], [-78.5562, -2.5601], [-78.5585, -2.5566], [-78.5643, -2.5545], [-78.5659, -2.5545], [-78.5695, -2.5587], [-78.5701, -2.5557], [-78.576, -2.5536], [-78.576, -2.5502], [-78.5783, -2.5468], [-78.5829, -2.5454], [-78.5887, -2.5461], [-78.5986, -2.5414], [-78.6013, -2.539], [-78.6082, -2.5275], [-78.6128, -2.5247], [-78.6166, -2.519], [-78.6277, -2.5101], [-78.6291, -2.5084], [-78.6294, -2.5048], [-78.6334, -2.5046], [-78.6393, -2.5065], [-78.6439, -2.5034], [-78.6472, -2.4978], [-78.6534, -2.4948], [-78.6563, -2.4884], [-78.6554, -2.4767], [-78.6642, -2.479], [-78.6691, -2.469], [-78.6666, -2.4613], [-78.6607, -2.4521], [-78.6622, -2.4523], [-78.6656, -2.45], [-78.6669, -2.4512], [-78.6703, -2.451], [-78.6732, -2.4523], [-78.6757, -2.45], [-78.6774, -2.4508], [-78.6784, -2.4496], [-78.6819, -2.4514], [-78.6893, -2.4483], [-78.6926, -2.4487], [-78.6936, -2.4475], [-78.6961, -2.4493], [-78.6998, -2.4482], [-78.6997, -2.4471], [-78.7029, -2.4444], [-78.7074, -2.4443], [-78.7131, -2.44], [-78.7193, -2.4387], [-78.7136, -2.4348], [-78.7126, -2.433], [-78.7135, -2.4284], [-78.7163, -2.4263], [-78.7265, -2.4294], [-78.7314, -2.4282], [-78.735, -2.4301], [-78.7382, -2.4354], [-78.7427, -2.4338], [-78.7479, -2.4345], [-78.7476, -2.439], [-78.7489, -2.4407], [-78.7486, -2.4381], [-78.7518, -2.4349], [-78.7614, -2.432], [-78.763, -2.4284], [-78.766, -2.4307], [-78.7731, -2.4291], [-78.7781, -2.4347], [-78.7834, -2.4351], [-78.7868, -2.4306], [-78.7865, -2.4241], [-78.7901, -2.4248], [-78.7984, -2.4163], [-78.7969, -2.4131], [-78.7979, -2.4096], [-78.7952, -2.4048], [-78.7962, -2.4027], [-78.793, -2.3992], [-78.7913, -2.3907], [-78.7918, -2.385], [-78.797, -2.3817], [-78.8, -2.3835], [-78.8076, -2.3851], [-78.8108, -2.3839], [-78.8134, -2.3776], [-78.8052, -2.3518], [-78.8075, -2.3418], [-78.8075, -2.3374], [-78.81, -2.3363], [-78.8086, -2.3318], [-78.8064, -2.3284], [-78.7976, -2.3225], [-78.7927, -2.3155], [-78.7913, -2.3067], [-78.7886, -2.2997], [-78.7879, -2.2855], [-78.7853, -2.2737], [-78.7828, -2.2721], [-78.7769, -2.2639], [-78.7747, -2.2579], [-78.7679, -2.2529], [-78.7636, -2.2398], [-78.7557, -2.2314], [-78.7541, -2.222], [-78.7498, -2.2176], [-78.7481, -2.2138], [-78.7439, -2.2108], [-78.741, -2.2067], [-78.7432, -2.2036], [-78.7427, -2.1993], [-78.7389, -2.1982], [-78.7374, -2.1934], [-78.7284, -2.1853], [-78.7222, -2.1829], [-78.7217, -2.1796], [-78.7168, -2.1732], [-78.7093, -2.1744], [-78.7041, -2.1775], [-78.7001, -2.1829], [-78.6905, -2.1915], [-78.6781, -2.192]]]}}, {"type": "Feature", "properties": {"dpa": "060250", "nombre": "Alausi"}, "geometry": {"type": "Polygon", "coordinates": [[[-78.8208, -2.2126], [-78.8245, -2.2175], [-78.8211, -2.2243], [-78.8223, -2.2307], [-78.8211, -2.2389], [-78.8373, -2.2406], [-78.8432, -2.2383], [-78.8496, -2.238], [-78.8518, -2.2394], [-78.8648, -2.2411], [-78.8696, -2.2443], [-78.8756, -2.2455], [-78.8793, -2.2443], [-78.8719, -2.235], [-78.8686, -2.2168], [-78.8658, -2.2136], [-78.8586, -2.2104], [-78.8562, -2.207], [-78.8557, -2.2038], [-78.8542, -2.2028], [-78.8541, -2.2006], [-78.8522, -2.1994], [-78.8504, -2.1958], [-78.8513, -2.193], [-78.8543, -2.1916], [-78.8583, -2.1862], [-78.8666, -2.1845], [-78.8713, -2.1778], [-78.8832, -2.1725], [-78.8896, -2.1681], [-78.8911, -2.1639], [-78.8845, -2.1517], [-78.8844, -2.1483], [-78.8809, -2.1413], [-78.8732, -2.1339], [-78.8667, -2.1307], [-78.8634, -2.1214], [-78.8617, -2.1196], [-78.8552, -2.1174], [-78.853, -2.1173], [-78.8514, -2.1187], [-78.852, -2.1242], [-78.8483, -2.1456], [-78.8444, -2.1489], [-78.8417, -2.1535], [-78.8437, -2.1574], [-78.8425, -2.1615], [-78.8434, -2.1692], [-78.8417, -2.1719], [-78.8469, -2.176], [-78.8476, -2.1787], [-78.8394, -2.1863], [-78.8334, -2.184], [-78.8244, -2.188], [-78.8114, -2.1961], [-78.8141, -2.1983], [-78.8148, -2.2013], [-78.8169, -2.2028], [-78.8186, -2.2025], [-78.8206, -2.2064], [-78.8208, -2.2126]]]}}, {"type": "Feature", "properties": {"dpa": "060956", "nombre": "Bilbao (cab. En Quilluyacu)"}, "geometry": {"type": "Polygon", "coordinates": [[[-78.4483, -1.4678], [-78.4595, -1.481], [-78.476, -1.486], [-78.4806, -1.4887], [-78.4878, -1.49], [-78.4922, -1.4878], [-78.5028, -1.4876], [-78.509, -1.4843], [-78.5095, -1.4862], [-78.512, -1.4883], [-78.5156, -1.4812], [-78.5145, -1.4806], [-78.5126, -1.4747], [-78.5129, -1.4699], [-78.5102, -1.4603], [-78.5079, -1.4566], [-78.5069, -1.4524], [-78.5075, -1.4497], [-78.5042, -1.443], [-78.5055, -1.4394], [-78.5011, -1.4344], [-78.4994, -1.4339], [-78.4964, -1.435], [-78.4977, -1.44], [-78.4955, -1.4415], [-78.4934, -1.4451], [-78.4865, -1.4494], [-78.4836, -1.4499], [-78.4818, -1.4529], [-78.4483, -1.4678]]]}}, {"type": "Feature", "properties": {"dpa": "060151", "nombre": "Cacha (cab. En Machangara)"}, "geometry": {"type": "Polygon", "coordinates": [[[-78.7209, -1.6826], [-78.7163, -1.6922], [-78.7118, -1.6937], [-78.7079, -1.6925], [-78.7048, -1.6956], [-78.7057, -1.6989], [-78.6976, -1.7002], [-78.6928, -1.6998], [-78.6904, -1.6983], [-78.6875, -1.7003], [-78.6824, -1.6991], [-78.6791, -1.7013], [-78.6803, -1.7037], [-78.6794, -1.7064], [-78.6801, -1.7083], [-78.676, -1.7106], [-78.6766, -1.716], [-78.6921, -1.7237], [-78.6948, -1.7267], [-78.6969, -1.7321], [-78.7001, -1.7336], [-78.7025, -1.739], [-78.7091, -1.7414], [-78.7082, -1.7442], [-78.7122, -1.7411], [-78.7216, -1.7407], [-78.7224, -1.7385], [-78.7275, -1.7343], [-78.7313, -1.7359], [-78.732, -1.7259], [-78.7346, -1.7223], [-78.7359, -1.7134], [-78.7288, -1.7099], [-78.732, -1.704], [-78.7317, -1.6844], [-78.7326, -1.6795], [-78.7311, -1.679], [-78.7275, -1.6816], [-78.7209, -1.6826]]]}}, {"type": "Feature", "properties": {"dpa": "060152", "nombre": "Calpi"}, "geometry": {"type": "Polygon", "coordinates": [[[-78.7205, -1.6194], [-78.7311, -1.6191], [-78.7316, -1.6201], [-78.7356, -1.6167], [-78.7409, -1.6277], [-78.7373, -1.6293], [-78.7329, -1.6354], [-78.7248, -1.6413], [-78.7177, -1.6542], [-78.7186, -1.6572], [-78.7198, -1.656], [-78.7226, -1.6563], [-78.7232, -1.6545], [-78.7242, -1.6555], [-78.7278, -1.6548], [-78.7288, -1.6552], [-78.7277, -1.6569], [-78.7288, -1.659], [-78.7306, -1.6592], [-78.7308, -1.6562], [-78.7345, -1.6551], [-78.7368, -1.6563], [-78.7402, -1.6558], [-78.7418, -1.6514], [-78.7439, -1.6506], [-78.751, -1.6517], [-78.7522, -1.6591], [-78.7546, -1.6599], [-78.7565, -1.6575], [-78.7588, -1.6597], [-78.7623, -1.6597], [-78.7641, -1.6623], [-78.7679, -1.6642], [-78.7733, -1.6708], [-78.782, -1.67], [-78.7892, -1.6655], [-78.7934, -1.6558], [-78.7913, -1.6467], [-78.7863, -1.6436], [-78.784, -1.6404], [-78.7802, -1.6415], [-78.7789, -1.6442], [-78.7704, -1.646], [-78.7687, -1.6475], [-78.7607, -1.6402], [-78.7591, -1.6362], [-78.762, -1.6332], [-78.7661, -1.6314], [-78.7745, -1.6198], [-78.7745, -1.6158], [-78.7714, -1.6074], [-78.7741, -1.6026], [-78.7758, -1.5818], [-78.7741, -1.5742], [-78.7697, -1.5682], [-78.7713, -1.5622], [-78.7775, -1.5583], [-78.7816, -1.5507], [-78.7722, -1.5564], [-78.7641, -1.5595], [-78.7625, -1.5623], [-78.7544, -1.5679], [-78.7494, -1.5694], [-78.7432, -1.5795], [-78.7391, -1.5834], [-78.7308, -1.586], [-78.7256, -1.5996], [-78.7143, -1.6059], [-78.7159, -1.6077], [-78.7162, -1.6123], [-78.7205, -1.6194]]]}}, {"type": "Feature", "properties": {"dpa": "060351", "nombre": "Cañi"}, "geometry": {"type": "Polygon", "coordinates": [[[-78.8847, -1.7511], [-78.8835, -1.752], [-78.8833, -1.7553], [-78.8898, -1.7665], [-78.8919, -1.7754], [-78.8926, -1.7866], [-78.8949, -1.7902], [-78.8971, -1.7901], [-78.9019, -1.7872], [-78.9099, -1.796], [-78.9114, -1.8015], [-78.9133, -1.8036], [-78.9275, -1.8058], [-78.9403, -1.8165], [-78.9539, -1.8203], [-78.9555, -1.8237], [-78.9578, -1.8245], [-78.9583, -1.827], [-78.9636, -1.8285], [-78.9717, -1.8391], [-78.9716, -1.8408], [-78.9737, -1.8419], [-78.975, -1.8454], [-78.9791, -1.8468], [-78.9803, -1.8502], [-78.983, -1.8524], [-78.9885, -1.8529], [-78.9936, -1.856], [-78.9975, -1.8555], [-79.0065, -1.8644], [-79.0125, -1.8672], [-79.0173, -1.8665], [-79.0173, -1.8641], [-79.0204, -1.8622], [-79.0221, -1.8568], [-79.021, -1.8521], [-79.0195, -1.85], [-79.0154, -1.8479], [-79.0142, -1.841], [-79.0125, -1.8401], [-79.0128, -1.835], [-79.0111, -1.8307], [-79.0121, -1.8283], [-79.0119, -1.8229], [-79.0098, -1.8098], [-79.0073, -1.8037], [-79.0076, -1.8017], [-79.0096, -1.7999], [-79.0082, -1.7942], [-79.0115, -1.7817], [-79.0123, -1.7741], [-78.9983, -1.7706], [-78.9955, -1.7654], [-78.9886, -1.7615], [-78.9843, -1.7555], [-78.9769, -1.7534], [-78.967, -1.7547], [-78.9498, -1.7544], [-78.9372, -1.7577], [-78.9341, -1.7567], [-78.93, -1.7596], [-78.9233, -1.7621], [-78.9194, -1.7612], [-78.9119, -1.7625], [-78.9097, -1.7603], [-78.9069, -1.7606], [-78.9041, -1.7557], [-78.8954, -1.7485], [-78.8931, -1.7491], [-78.8912, -1.7515], [-78.885, -1.7521], [-78.8847, -1.7511]]]}}, {"type": "Feature", "properties": {"dpa": "060551", "nombre": "Capzol"}, "geometry": {"type": "Polygon", "coordinates": [[[-78.9065, -2.3605], [-78.9084, -2.3538], [-78.9156, -2.3429], [-78.928, -2.335], [-78.9303, -2.3313], [-78.93, -2.3249], [-78.9315, -2.3217], [-78.9388, -2.318], [-78.9488, -2.309], [-78.9509, -2.3051], [-78.9534, -2.3035], [-78.9562, -2.2955], [-78.962, -2.2898], [-78.9626, -2.2845], [-78.9664, -2.2777], [-78.9602, -2.2745], [-78.9587, -2.2725], [-78.9545, -2.2723], [-78.9521, -2.2707], [-78.951, -2.2679], [-78.9481, -2.2676], [-78.9442, -2.272], [-78.9435, -2.2743], [-78.9446, -2.2783], [-78.9424, -2.2822], [-78.943, -2.2884], [-78.9372, -2.2928], [-78.9354, -2.2966], [-78.9303, -2.2973], [-78.9271, -2.295], [-78.9148, -2.2981], [-78.9089, -2.3117], [-78.9044, -2.314], [-78.9008, -2.3134], [-78.8984, -2.3177], [-78.9002, -2.3261], [-78.9029, -2.3292], [-78.9046, -2.3361], [-78.9078, -2.3419], [-78.9068, -2.3483], [-78.9029, -2.3558], [-78.9065, -2.3605]]]}}, {"type": "Feature", "properties": {"dpa": "060651", "nombre": "Cebadas"}, "geometry": {"type": "Polygon", "coordinates": [[[-78.4612, -1.9369], [-78.4605, -1.9446], [-78.4634, -1.9495], [-78.473, -1.9512], [-78.4754, -1.9528], [-78.4823, -1.9526], [-78.489, -1.9583], [-78.4876, -1.9722], [-78.4862, -1.9756], [-78.4873, -1.9817], [-78.4846, -1.9859], [-78.4846, -1.9926], [-78.478, -2.0009], [-78.4692, -1.9989], [-78.4635, -1.9942], [-78.4596, -1.9929], [-78.4515, -2.0031], [-78.4427, -2.0083], [-78.4421, -2.0137], [-78.4469, -2.0189], [-78.4478, -2.027], [-78.4502, -2.028], [-78.4512, -2.0299], [-78.4506, -2.0353], [-78.4521, -2.0418], [-78.4538, -2.0655], [-78.4508, -2.0669], [-78.4488, -2.07], [-78.4442, -2.0704], [-78.4428, -2.0716], [-78.4393, -2.0773], [-78.4412, -2.084], [-78.4367, -2.0851], [-78.4351, -2.0887], [-78.4313, -2.0923], [-78.4371, -2.0935], [-78.4388, -2.0958], [-78.444, -2.0986], [-78.4465, -2.1029], [-78.4475, -2.1128], [-78.4505, -2.1172], [-78.4531, -2.1183], [-78.4584, -2.1176], [-78.4712, -2.1217], [-78.4783, -2.1273], [-78.4831, -2.1291], [-78.4939, -2.1212], [-78.4973, -2.125], [-78.502, -2.1275], [-78.5064, -2.1273], [-78.5156, -2.1379], [-78.5139, -2.1467], [-78.5167, -2.1545], [-78.5039, -2.1571], [-78.5037, -2.1731], [-78.4998, -2.1944], [-78.5016, -2.2023], [-78.5011, -2.2058], [-78.4928, -2.2094], [-78.4877, -2.2168], [-78.4929, -2.227], [-78.4988, -2.2304], [-78.5007, -2.2377], [-78.4996, -2.2397], [-78.5004, -2.2412], [-78.5057, -2.2459], [-78.5101, -2.2472], [-78.5144, -2.2403], [-78.5251, -2.2433], [-78.532, -2.2424], [-78.5355, -2.2369], [-78.5403, -2.2386], [-78.5463, -2.2373], [-78.5491, -2.2356], [-78.553, -2.2297], [-78.5561, -2.2297], [-78.5599, -2.2233], [-78.5658, -2.2255], [-78.5693, -2.2236], [-78.5742, -2.2241], [-78.5764, -2.2229], [-78.5775, -2.2213], [-78.575, -2.2121], [-78.5735, -2.2093], [-78.5687, -2.206], [-78.5702, -2.2061], [-78.572, -2.2033], [-78.5815, -2.2039], [-78.585, -2.202], [-78.593, -2.2005], [-78.6092, -2.2024], [-78.6126, -2.1982], [-78.6177, -2.1953], [-78.6198, -2.1926], [-78.6191, -2.1889], [-78.6206, -2.1858], [-78.62, -2.1832], [-78.6209, -2.1807], [-78.6199, -2.1785], [-78.6165, -2.1783], [-78.6155, -2.1755], [-78.6097, -2.175], [-78.6028, -2.1719], [-78.5978, -2.1643], [-78.5965, -2.164], [-78.5971, -2.1602], [-78.5945, -2.1577], [-78.5948, -2.1553], [-78.5937, -2.1543], [-78.595, -2.1505], [-78.5931, -2.1468], [-78.5944, -2.1457], [-78.5953, -2.1382], [-78.5918, -2.1335], [-78.5905, -2.1335], [-78.5875, -2.1275], [-78.5887, -2.1251], [-78.5856, -2.1178], [-78.5875, -2.1137], [-78.5918, -2.1104], [-78.5945, -2.1022], [-78.5991, -2.0976], [-78.5989, -2.0952], [-78.5962, -2.0924], [-78.5956, -2.0869], [-78.5977, -2.0851], [-78.5967, -2.0813], [-78.5989, -2.0798], [-78.5997, -2.0741], [-78.6022, -2.0747], [-78.6025, -2.0725], [-78.6051, -2.0724], [-78.6047, -2.0679], [-78.6034, -2.0674], [-78.6044, -2.0636], [-78.6076, -2.0625], [-78.6066, -2.0603], [-78.6098, -2.0597], [-78.6108, -2.0577], [-78.6147, -2.0576], [-78.6158, -2.0586], [-78.6181, -2.057], [-78.6195, -2.0525], [-78.6156, -2.0458], [-78.6188, -2.0441], [-78.6231, -2.0372], [-78.6217, -2.0343], [-78.6254, -2.0319], [-78.626, -2.0289], [-78.6291, -2.0282], [-78.6306, -2.0232], [-78.6332, -2.0201], [-78.6308, -2.0189], [-78.6311, -2.0164], [-78.6293, -2.0149], [-78.6327, -2.0116], [-78.6315, -2.0084], [-78.6323, -2.0061], [-78.6298, -2.0051], [-78.6283, -2.0028], [-78.6289, -2.0015], [-78.6307, -2.0013], [-78.631, -1.9968], [-78.6289, -1.9912], [-78.6302, -1.9882], [-78.6354, -1.9846], [-78.6345, -1.9808], [-78.6357, -1.9801], [-78.6376, -1.9818], [-78.64, -1.9793], [-78.639, -1.9681], [-78.6418, -1.9646], [-78.639, -1.9614], [-78.6405, -1.9557], [-78.6369, -1.9519], [-78.6376, -1.9495], [-78.6356, -1.9467], [-78.6368, -1.9419], [-78.6384, -1.942], [-78.6392, -1.9436], [-78.6413, -1.9423], [-78.6382, -1.9332], [-78.6419, -1.9267], [-78.6414, -1.9236], [-78.6423, -1.921], [-78.6473, -1.9263], [-78.6542, -1.9283], [-78.6575, -1.9306], [-78.6683, -1.9301], [-78.6745, -1.925], [-78.668, -1.9073], [-78.6593, -1.9013], [-78.656, -1.8884], [-78.6535, -1.8867], [-78.652, -1.8833], [-78.65, -1.884], [-78.6491, -1.8822], [-78.641, -1.8819], [-78.6361, -1.8796], [-78.6346, -1.8777], [-78.6313, -1.8791], [-78.6278, -1.8766], [-78.6242, -1.8771], [-78.6222, -1.8734], [-78.6174, -1.8706], [-78.6142, -1.8742], [-78.6115, -1.8721], [-78.6111, -1.8677], [-78.607, -1.8665], [-78.6063, -1.8724], [-78.5979, -1.8802], [-78.5939, -1.8815], [-78.5941, -1.8831], [-78.5898, -1.883], [-78.5879, -1.8852], [-78.5846, -1.8847], [-78.58, -1.8818], [-78.5734, -1.8808], [-78.5698, -1.8826], [-78.5647, -1.8831], [-78.5566, -1.8913], [-78.5511, -1.8923], [-78.5508, -1.895], [-78.5414, -1.9037], [-78.5396, -1.9061], [-78.5395, -1.9089], [-78.5377, -1.9105], [-78.5365, -1.9151], [-78.5377, -1.9178], [-78.5371, -1.9194], [-78.5383, -1.9203], [-78.5373, -1.9215], [-78.5385, -1.9241], [-78.538, -1.9269], [-78.5404, -1.9315], [-78.5402, -1.9335], [-78.5362, -1.9392], [-78.535, -1.9437], [-78.5326, -1.9461], [-78.5261, -1.946], [-78.5228, -1.9484], [-78.5183, -1.9482], [-78.5114, -1.9513], [-78.5071, -1.9516], [-78.4972, -1.9492], [-78.4921, -1.9456], [-78.4835, -1.9436], [-78.4805, -1.9446], [-78.4748, -1.942], [-78.4659, -1.942], [-78.4644, -1.9385], [-78.4612, -1.9369]], [[-78.5962, -2.0925], [-78.5962, -2.0925], [-78.5962, -2.0925], [-78.5962, -2.0925]]]}}, {"type": "Feature", "properties": {"dpa": "060352", "nombre": "Columbe"}, "geometry": {"type": "Polygon", "coordinates": [[[-78.7366, -1.827], [-78.7379, -1.8357], [-78.7362, -1.8382], [-78.7356, -1.8428], [-78.7315, -1.8477], [-78.7259, -1.8372], [-78.7175, -1.8296], [-78.7133, -1.818], [-78.7046, -1.8044], [-78.7035, -1.7981], [-78.6929, -1.785], [-78.6928, -1.7835], [-78.6898, -1.7875], [-78.6889, -1.7915], [-78.6897, -1.8013], [-78.6888, -1.8105], [-78.6873, -1.8147], [-78.6927, -1.8268], [-78.692, -1.8323], [-78.6916, -1.8331], [-78.6841, -1.8338], [-78.6817, -1.8329], [-78.6785, -1.8343], [-78.6752, -1.8334], [-78.6746, -1.8346], [-78.6699, -1.8339], [-78.6696, -1.8376], [-78.6674, -1.8405], [-78.6668, -1.8479], [-78.6736, -1.8505], [-78.6776, -1.8497], [-78.6847, -1.8518], [-78.6897, -1.8562], [-78.6905, -1.8587], [-78.6954, -1.8617], [-78.6959, -1.8688], [-78.6987, -1.8716], [-78.6982, -1.874], [-78.7021, -1.8794], [-78.7048, -1.8875], [-78.7051, -1.8934], [-78.7072, -1.8966], [-78.7114, -1.8991], [-78.7127, -1.9035], [-78.7122, -1.908], [-78.7154, -1.9154], [-78.7142, -1.9291], [-78.717, -1.9297], [-78.7188, -1.9283], [-78.7223, -1.9214], [-78.7222, -1.9184], [-78.7237, -1.9154], [-78.7225, -1.9145], [-78.7219, -1.9001], [-78.7332, -1.8936], [-78.7346, -1.8945], [-78.7354, -1.8978], [-78.7494, -1.9064], [-78.7524, -1.9073], [-78.7575, -1.9058], [-78.7665, -1.9074], [-78.7774, -1.9212], [-78.7824, -1.9214], [-78.8021, -1.9301], [-78.8037, -1.9323], [-78.8091, -1.9336], [-78.8134, -1.9385], [-78.8147, -1.9476], [-78.818, -1.947], [-78.8245, -1.94], [-78.8294, -1.9409], [-78.8321, -1.9377], [-78.8385, -1.9342], [-78.8442, -1.9391], [-78.8525, -1.9398], [-78.8523, -1.9312], [-78.856, -1.9269], [-78.855, -1.925], [-78.8561, -1.9235], [-78.8529, -1.9182], [-78.8522, -1.9113], [-78.8505, -1.909], [-78.8515, -1.9058], [-78.8505, -1.9023], [-78.851, -1.892], [-78.8452, -1.8825], [-78.8493, -1.8743], [-78.8498, -1.8579], [-78.84, -1.843], [-78.8343, -1.8405], [-78.8363, -1.8344], [-78.8389, -1.8321], [-78.8468, -1.8308], [-78.8469, -1.8272], [-78.8455, -1.8123], [-78.8468, -1.8059], [-78.8457, -1.7967], [-78.8374, -1.7877], [-78.8375, -1.7819], [-78.8359, -1.7778], [-78.84, -1.7734], [-78.8345, -1.7574], [-78.8341, -1.7555], [-78.8358, -1.7534], [-78.8324, -1.7513], [-78.8317, -1.7538], [-78.8235, -1.7573], [-78.8173, -1.7664], [-78.8053, -1.7643], [-78.8067, -1.7731], [-78.8031, -1.7802], [-78.8021, -1.7874], [-78.7977, -1.7928], [-78.7906, -1.7927], [-78.7891, -1.7985], [-78.7792, -1.8105], [-78.7802, -1.8146], [-78.7767, -1.8209], [-78.7762, -1.8315], [-78.7661, -1.8289], [-78.7588, -1.8245], [-78.7461, -1.8268], [-78.7366, -1.827]]]}}, {"type": "Feature", "properties": {"dpa": "060552", "nombre": "Compud"}, "geometry": {"type": "Polygon", "coordinates": [[[-78.9065, -2.3605], [-78.9016, -2.3657], [-78.9045, -2.3777], [-78.9025, -2.3866], [-78.9019, -2.3876], [-78.8908, -2.3887], [-78.8893, -2.3924], [-78.8869, -2.3944], [-78.8898, -2.3991], [-78.8961, -2.3961], [-78.8991, -2.3926], [-78.9032, -2.3945], [-78.9061, -2.3928], [-78.9161, -2.3918], [-78.9224, -2.3892], [-78.928, -2.3885], [-78.9337, -2.3896], [-78.9353, -2.385], [-78.9366, -2.3731], [-78.938, -2.3709], [-78.9384, -2.3629], [-78.9453, -2.3574], [-78.9456, -2.3504], [-78.9503, -2.3405], [-78.9484, -2.3331], [-78.9498, -2.328], [-78.9488, -2.3155], [-78.9508, -2.3114], [-78.9509, -2.3051], [-78.9491, -2.3087], [-78.9437, -2.314], [-78.9385, -2.3182], [-78.9315, -2.3217], [-78.93, -2.3249], [-78.9303, -2.3313], [-78.928, -2.335], [-78.9156, -2.3429], [-78.9084, -2.3538], [-78.9065, -2.3605]]]}}, {"type": "Feature", "properties": {"dpa": "060153", "nombre": "Cubijies"}, "geometry": {"type": "Polygon", "coordinates": [[[-78.5786, -1.6487], [-78.5825, -1.6517], [-78.5883, -1.6598], [-78.5856, -1.6637], [-78.5873, -1.6653], [-78.5879, -1.6681], [-78.5915, -1.6705], [-78.5946, -1.671], [-78.5922, -1.6765], [-78.5931, -1.6779], [-78.5975, -1.6751], [-78.601, -1.6759], [-78.6064, -1.6747], [-78.6042, -1.6704], [-78.6073, -1.6675], [-78.609, -1.6672], [-78.6106, -1.6687], [-78.6139, -1.6645], [-78.6155, -1.6656], [-78.6173, -1.6637], [-78.6192, -1.6643], [-78.6167, -1.6463], [-78.6135, -1.6438], [-78.6092, -1.6427], [-78.6045, -1.6368], [-78.6015, -1.6371], [-78.5986, -1.6341], [-78.5955, -1.6331], [-78.5917, -1.6375], [-78.5881, -1.6382], [-78.5884, -1.6392], [-78.5866, -1.6408], [-78.5873, -1.6415], [-78.5862, -1.6422], [-78.5859, -1.6462], [-78.5829, -1.6471], [-78.5808, -1.6493], [-78.5786, -1.6487]]]}}, {"type": "Feature", "properties": {"dpa": "061050", "nombre": "Cumanda"}, "geometry": {"type": "Polygon", "coordinates": [[[-79.0034, -2.188], [-78.9992, -2.1947], [-78.9936, -2.1966], [-78.9847, -2.2022], [-78.9831, -2.2053], [-78.9845, -2.2096], [-78.9911, -2.2157], [-78.9984, -2.2196], [-78.9988, -2.2237], [-79.0012, -2.2282], [-79.0104, -2.2304], [-79.0146, -2.2326], [-79.0156, -2.2371], [-79.0234, -2.2419], [-79.0312, -2.2485], [-79.0389, -2.2595], [-79.043, -2.2611], [-79.0474, -2.2588], [-79.0572, -2.2708], [-79.0598, -2.2773], [-79.0716, -2.2851], [-79.0786, -2.2819], [-79.0843, -2.2817], [-79.0872, -2.2784], [-79.0901, -2.2784], [-79.092, -2.266], [-79.0965, -2.2619], [-79.1002, -2.254], [-79.1106, -2.251], [-79.1151, -2.2481], [-79.1231, -2.2466], [-79.1303, -2.2424], [-79.1329, -2.238], [-79.1323, -2.2326], [-79.1351, -2.2255], [-79.1344, -2.2163], [-79.1363, -2.2131], [-79.1388, -2.2119], [-79.141, -2.2131], [-79.1558, -2.2116], [-79.1627, -2.2143], [-79.1698, -2.2145], [-79.1727, -2.2135], [-79.2024, -2.2121], [-79.2076, -2.2107], [-79.2127, -2.2127], [-79.2211, -2.2101], [-79.2332, -2.2119], [-79.239, -2.215], [-79.2411, -2.2181], [-79.2439, -2.2197], [-79.2547, -2.2175], [-79.253, -2.2108], [-79.2495, -2.2113], [-79.2483, -2.1963], [-79.2446, -2.1976], [-79.2405, -2.1956], [-79.2348, -2.1959], [-79.23, -2.1983], [-79.2254, -2.1976], [-79.2211, -2.1995], [-79.2109, -2.1978], [-79.2085, -2.1959], [-79.2054, -2.1964], [-79.202, -2.194], [-79.1992, -2.1942], [-79.1929, -2.1913], [-79.1888, -2.1924], [-79.1792, -2.1985], [-79.1636, -2.2027], [-79.1526, -2.2013], [-79.1425, -2.2027], [-79.1272, -2.2026], [-79.1176, -2.202], [-79.1128, -2.2001], [-79.1083, -2.1997], [-79.1073, -2.1942], [-79.1031, -2.1938], [-79.0999, -2.1892], [-79.098, -2.1893], [-79.0935, -2.1858], [-79.0876, -2.1838], [-79.0816, -2.1785], [-79.0757, -2.169], [-79.0728, -2.1681], [-79.0714, -2.1657], [-79.0679, -2.1639], [-79.0673, -2.1613], [-79.0628, -2.1575], [-79.0624, -2.1548], [-79.06, -2.1544], [-79.0543, -2.1495], [-79.0519, -2.1494], [-79.0498, -2.1433], [-79.0483, -2.1428], [-79.0487, -2.1394], [-79.0466, -2.1373], [-79.0422, -2.1415], [-79.0416, -2.1461], [-79.0389, -2.1479], [-79.0341, -2.148], [-79.03, -2.1503], [-79.0288, -2.1566], [-79.0255, -2.1638], [-79.022, -2.1683], [-79.0199, -2.1806], [-79.0135, -2.1867], [-79.0083, -2.1863], [-79.0034, -2.188]]]}}, {"type": "Feature", "properties": {"dpa": "060450", "nombre": "Chambo"}, "geometry": {"type": "Polygon", "coordinates": [[[-78.5995, -1.6806], [-78.5958, -1.6855], [-78.5895, -1.6893], [-78.5902, -1.6931], [-78.5855, -1.7025], [-78.5783, -1.7065], [-78.5699, -1.7145], [-78.5655, -1.7139], [-78.5615, -1.7112], [-78.5547, -1.7106], [-78.5497, -1.7088], [-78.5397, -1.7116], [-78.5278, -1.7127], [-78.5153, -1.7154], [-78.514, -1.7102], [-78.5082, -1.7058], [-78.5056, -1.7058], [-78.5018, -1.7028], [-78.5013, -1.6997], [-78.4968, -1.6949], [-78.496, -1.6894], [-78.4892, -1.6969], [-78.4902, -1.7034], [-78.4888, -1.7075], [-78.4822, -1.7133], [-78.4763, -1.7166], [-78.4726, -1.7221], [-78.471, -1.7276], [-78.4718, -1.7312], [-78.4694, -1.7346], [-78.4706, -1.7399], [-78.4689, -1.7424], [-78.4694, -1.7481], [-78.4685, -1.7502], [-78.4589, -1.7617], [-78.4572, -1.7629], [-78.4467, -1.762], [-78.4449, -1.7659], [-78.4619, -1.7839], [-78.4683, -1.7939], [-78.4916, -1.7888], [-78.497, -1.7918], [-78.4985, -1.7952], [-78.5012, -1.7967], [-78.5012, -1.8006], [-78.5075, -1.8058], [-78.519, -1.8056], [-78.5278, -1.8074], [-78.5361, -1.8052], [-78.5446, -1.8073], [-78.5493, -1.8069], [-78.5526, -1.8056], [-78.5543, -1.8028], [-78.5649, -1.7991], [-78.5691, -1.7998], [-78.573, -1.7981], [-78.5757, -1.7926], [-78.5781, -1.7909], [-78.5794, -1.7921], [-78.5862, -1.7915], [-78.5873, -1.7899], [-78.5859, -1.7879], [-78.5854, -1.7818], [-78.5964, -1.7692], [-78.5989, -1.7642], [-78.5988, -1.7612], [-78.6007, -1.7607], [-78.6024, -1.7584], [-78.6055, -1.7591], [-78.6073, -1.7541], [-78.6107, -1.7524], [-78.6154, -1.7468], [-78.6159, -1.7429], [-78.6184, -1.7401], [-78.6197, -1.7419], [-78.6222, -1.7426], [-78.6233, -1.7446], [-78.6334, -1.739], [-78.6312, -1.7372], [-78.63, -1.7335], [-78.6306, -1.7307], [-78.6293, -1.7254], [-78.6265, -1.7203], [-78.6248, -1.721], [-78.6214, -1.7186], [-78.6221, -1.7153], [-78.6185, -1.7143], [-78.6161, -1.7167], [-78.6119, -1.713], [-78.607, -1.7122], [-78.6087, -1.7073], [-78.6058, -1.7055], [-78.6068, -1.7004], [-78.6055, -1.6994], [-78.6054, -1.6962], [-78.608, -1.6826], [-78.6034, -1.6802], [-78.6018, -1.6818], [-78.5995, -1.6806]]]}}, {"type": "Feature", "properties": {"dpa": "060550", "nombre": "Chunchi"}, "geometry": {"type": "Polygon", "coordinates": [[[-78.8855, -2.28], [-78.8822, -2.2867], [-78.8782, -2.2901], [-78.8763, -2.2972], [-78.8694, -2.3049], [-78.8636, -2.3077], [-78.8604, -2.3075], [-78.8541, -2.3036], [-78.8471, -2.3028], [-78.8448, -2.3009], [-78.8453, -2.3047], [-78.8392, -2.3135], [-78.8272, -2.3212], [-78.823, -2.3251], [-78.8204, -2.3258], [-78.8128, -2.3351], [-78.8075, -2.3373], [-78.8052, -2.3518], [-78.8135, -2.3772], [-78.8219, -2.3788], [-78.8282, -2.3831], [-78.8331, -2.3842], [-78.8419, -2.3948], [-78.8455, -2.3971], [-78.8503, -2.3963], [-78.8554, -2.39], [-78.8601, -2.3956], [-78.8644, -2.3962], [-78.8708, -2.3935], [-78.8786, -2.3926], [-78.887, -2.3944], [-78.8893, -2.3924], [-78.8908, -2.3887], [-78.9022, -2.3873], [-78.9045, -2.3777], [-78.9016, -2.3657], [-78.9065, -2.3605], [-78.9029, -2.3558], [-78.9068, -2.3483], [-78.9078, -2.3419], [-78.9046, -2.3361], [-78.9029, -2.3292], [-78.9002, -2.3261], [-78.8982, -2.3181], [-78.9008, -2.3134], [-78.9044, -2.314], [-78.9089, -2.3117], [-78.9148, -2.2981], [-78.9271, -2.295], [-78.9303, -2.2973], [-78.9356, -2.2965], [-78.9372, -2.2928], [-78.943, -2.2884], [-78.9425, -2.2815], [-78.9446, -2.2783], [-78.9435, -2.2739], [-78.9481, -2.2676], [-78.9403, -2.2651], [-78.9378, -2.2659], [-78.9322, -2.2641], [-78.9167, -2.2646], [-78.9128, -2.2601], [-78.9092, -2.2603], [-78.9026, -2.2548], [-78.8976, -2.253], [-78.8951, -2.257], [-78.8929, -2.2665], [-78.8855, -2.28]]]}}, {"type": "Feature", "properties": {"dpa": "060951", "nombre": "El Altar"}, "geometry": {"type": "Polygon", "coordinates": [[[-78.364, -1.5294], [-78.3647, -1.5331], [-78.3767, -1.5362], [-78.3763, -1.5411], [-78.3742, -1.543], [-78.3738, -1.5453], [-78.3763, -1.5527], [-78.3763, -1.5584], [-78.3724, -1.5655], [-78.3732, -1.5724], [-78.3705, -1.5757], [-78.3803, -1.5753], [-78.3827, -1.5719], [-78.3812, -1.5699], [-78.382, -1.5668], [-78.3907, -1.5617], [-78.3911, -1.5556], [-78.3927, -1.5533], [-78.3968, -1.5517], [-78.4006, -1.5527], [-78.4025, -1.5514], [-78.3994, -1.559], [-78.4027, -1.5634], [-78.4023, -1.5645], [-78.4043, -1.5645], [-78.4078, -1.567], [-78.4096, -1.5698], [-78.4118, -1.5706], [-78.4148, -1.5702], [-78.4192, -1.5674], [-78.422, -1.5677], [-78.4285, -1.5729], [-78.4368, -1.5832], [-78.4403, -1.5846], [-78.4501, -1.5834], [-78.4571, -1.5788], [-78.464, -1.5766], [-78.4699, -1.5682], [-78.4731, -1.5654], [-78.4847, -1.5593], [-78.4873, -1.5551], [-78.4905, -1.5556], [-78.4954, -1.552], [-78.4997, -1.5542], [-78.5025, -1.5537], [-78.5076, -1.5432], [-78.5079, -1.5336], [-78.5111, -1.5302], [-78.5151, -1.5299], [-78.517, -1.5282], [-78.5181, -1.5211], [-78.5098, -1.5203], [-78.502, -1.5234], [-78.4972, -1.5206], [-78.4964, -1.519], [-78.4908, -1.5195], [-78.483, -1.5168], [-78.4779, -1.5131], [-78.4677, -1.5101], [-78.4578, -1.5155], [-78.4563, -1.5207], [-78.4586, -1.5292], [-78.4569, -1.5327], [-78.4531, -1.5341], [-78.4483, -1.5333], [-78.4445, -1.5309], [-78.4283, -1.5296], [-78.4259, -1.5284], [-78.4246, -1.5246], [-78.4222, -1.5228], [-78.4166, -1.5245], [-78.4143, -1.5238], [-78.4144, -1.5261], [-78.4129, -1.5272], [-78.4105, -1.5257], [-78.3991, -1.5258], [-78.3972, -1.5247], [-78.3943, -1.5277], [-78.3896, -1.5294], [-78.3864, -1.5268], [-78.3828, -1.5269], [-78.3812, -1.5257], [-78.3793, -1.527], [-78.3747, -1.5272], [-78.3722, -1.5296], [-78.364, -1.5294]]]}}, {"type": "Feature", "properties": {"dpa": "060154", "nombre": "Flores"}, "geometry": {"type": "Polygon", "coordinates": [[[-78.6206, -1.8724], [-78.6232, -1.8745], [-78.6242, -1.8771], [-78.6278, -1.8766], [-78.63, -1.8778], [-78.6318, -1.8753], [-78.6306, -1.8718], [-78.6312, -1.8695], [-78.6418, -1.8495], [-78.6534, -1.8548], [-78.6595, -1.8543], [-78.6628, -1.8497], [-78.6668, -1.8479], [-78.6674, -1.8405], [-78.6696, -1.8376], [-78.6699, -1.8339], [-78.6727, -1.8347], [-78.6746, -1.8346], [-78.6752, -1.8334], [-78.6785, -1.8343], [-78.6817, -1.8329], [-78.6836, -1.8338], [-78.6916, -1.8331], [-78.6932, -1.8288], [-78.6927, -1.8268], [-78.6873, -1.8147], [-78.6888, -1.8105], [-78.6897, -1.8013], [-78.6889, -1.7915], [-78.6863, -1.7908], [-78.6756, -1.7998], [-78.6716, -1.8012], [-78.6689, -1.805], [-78.6645, -1.8082], [-78.6567, -1.8118], [-78.6558, -1.8098], [-78.6582, -1.8024], [-78.6599, -1.8008], [-78.6489, -1.7953], [-78.6495, -1.7913], [-78.6455, -1.7859], [-78.6465, -1.782], [-78.6431, -1.7851], [-78.6418, -1.7887], [-78.6381, -1.7922], [-78.6337, -1.8113], [-78.6351, -1.8148], [-78.6294, -1.8166], [-78.6299, -1.8235], [-78.6232, -1.8312], [-78.627, -1.8441], [-78.6308, -1.8497], [-78.6308, -1.8533], [-78.6291, -1.8567], [-78.6289, -1.8654], [-78.6248, -1.8704], [-78.6206, -1.8724]]]}}, {"type": "Feature", "properties": {"dpa": "060553", "nombre": "Gonzol"}, "geometry": {"type": "Polygon", "coordinates": [[[-78.8299, -2.2396], [-78.8278, -2.246], [-78.8329, -2.255], [-78.8313, -2.2642], [-78.8344, -2.2711], [-78.8368, -2.281], [-78.8432, -2.2894], [-78.8429, -2.297], [-78.8448, -2.3009], [-78.8471, -2.3028], [-78.8541, -2.3036], [-78.8604, -2.3075], [-78.8636, -2.3077], [-78.8694, -2.3049], [-78.8763, -2.2972], [-78.8782, -2.2901], [-78.8822, -2.2867], [-78.8855, -2.28], [-78.8848, -2.2789], [-78.8825, -2.2786], [-78.8834, -2.276], [-78.8828, -2.2707], [-78.877, -2.2678], [-78.8769, -2.2622], [-78.8641, -2.262], [-78.8683, -2.2538], [-78.8719, -2.2509], [-78.8722, -2.2444], [-78.8695, -2.2443], [-78.8648, -2.2411], [-78.8518, -2.2394], [-78.8496, -2.238], [-78.8432, -2.2383], [-78.8374, -2.2406], [-78.8299, -2.2396]]]}}, {"type": "Feature", "properties": {"dpa": "060650", "nombre": "Guamote"}, "geometry": {"type": "MultiPolygon", "coordinates": [[[[-78.63, -1.8778], [-78.6313, -1.8791], [-78.6346, -1.8777], [-78.6361, -1.8796], [-78.641, -1.8819], [-78.6491, -1.8822], [-78.65, -1.884], [-78.652, -1.8833], [-78.6535, -1.8867], [-78.656, -1.8884], [-78.6593, -1.9013], [-78.668, -1.9073], [-78.6745, -1.925], [-78.6683, -1.9301], [-78.6575, -1.9306], [-78.6542, -1.9283], [-78.6473, -1.9263], [-78.6423, -1.921], [-78.6414, -1.9236], [-78.6419, -1.9267], [-78.6382, -1.9332], [-78.6413, -1.9423], [-78.6392, -1.9436], [-78.6384, -1.942], [-78.6368, -1.9419], [-78.6356, -1.9467], [-78.6376, -1.9495], [-78.6369, -1.9519], [-78.6405, -1.9557], [-78.639, -1.9614], [-78.6418, -1.9646], [-78.639, -1.9681], [-78.64, -1.9793], [-78.6376, -1.9818], [-78.6357, -1.9801], [-78.6345, -1.9808], [-78.6354, -1.9846], [-78.6302, -1.9882], [-78.6289, -1.9912], [-78.631, -1.9968], [-78.6307, -2.0013], [-78.6289, -2.0015], [-78.6283, -2.0028], [-78.6298, -2.0051], [-78.6323, -2.0061], [-78.6315, -2.0084], [-78.6327, -2.0116], [-78.6293, -2.0149], [-78.6311, -2.0164], [-78.6308, -2.0189], [-78.6332, -2.0201], [-78.6306, -2.0232], [-78.6291, -2.0282], [-78.626, -2.0289], [-78.6254, -2.0319], [-78.6217, -2.0343], [-78.6231, -2.0372], [-78.6188, -2.0441], [-78.6156, -2.0458], [-78.6195, -2.0525], [-78.6181, -2.057], [-78.6158, -2.0586], [-78.6147, -2.0576], [-78.6108, -2.0577], [-78.6098, -2.0597], [-78.6066, -2.0603], [-78.6076, -2.0625], [-78.6044, -2.0636], [-78.6034, -2.0674], [-78.6047, -2.0679], [-78.6051, -2.0724], [-78.6025, -2.0725], [-78.6022, -2.0747], [-78.5997, -2.0741], [-78.5989, -2.0798], [-78.5967, -2.0813], [-78.5977, -2.0851], [-78.5956, -2.0869], [-78.5962, -2.0924], [-78.5989, -2.0952], [-78.5991, -2.0976], [-78.5945, -2.1022], [-78.5918, -2.1104], [-78.5875, -2.1137], [-78.5856, -2.1178], [-78.5887, -2.1251], [-78.5875, -2.1275], [-78.5905, -2.1335], [-78.5918, -2.1335], [-78.5953, -2.1382], [-78.5944, -2.1457], [-78.5931, -2.1468], [-78.595, -2.1505], [-78.5937, -2.1543], [-78.5948, -2.1553], [-78.5945, -2.1577], [-78.5971, -2.1602], [-78.5965, -2.164], [-78.5978, -2.1643], [-78.6028, -2.1719], [-78.6097, -2.175], [-78.6155, -2.1755], [-78.6165, -2.1783], [-78.6199, -2.1785], [-78.6214, -2.1834], [-78.6236, -2.1851], [-78.6236, -2.1882], [-78.6249, -2.1883], [-78.625, -2.1905], [-78.6278, -2.1921], [-78.6265, -2.1972], [-78.6275, -2.1995], [-78.6324, -2.1987], [-78.6512, -2.1905], [-78.6785, -2.1919], [-78.6823, -2.1801], [-78.6709, -2.1567], [-78.6646, -2.1615], [-78.6495, -2.1592], [-78.6458, -2.1489], [-78.6393, -2.1383], [-78.6339, -2.1352], [-78.6349, -2.1277], [-78.6393, -2.1229], [-78.6353, -2.1177], [-78.6372, -2.1083], [-78.6333, -2.1108], [-78.6257, -2.1107], [-78.6276, -2.1068], [-78.6308, -2.1044], [-78.633, -2.0968], [-78.6412, -2.0997], [-78.6391, -2.0902], [-78.6437, -2.0832], [-78.6619, -2.0743], [-78.6659, -2.0741], [-78.6743, -2.0704], [-78.6817, -2.0721], [-78.6861, -2.0706], [-78.6892, -2.0681], [-78.6939, -2.0674], [-78.6989, -2.0633], [-78.701, -2.0595], [-78.6995, -2.057], [-78.7013, -2.0502], [-78.7074, -2.0483], [-78.7145, -2.048], [-78.7182, -2.044], [-78.7214, -2.0362], [-78.7247, -2.0343], [-78.726, -2.0304], [-78.7286, -2.0291], [-78.7298, -2.0266], [-78.7297, -2.0202], [-78.7239, -2.0081], [-78.724, -2.0038], [-78.7249, -2.0051], [-78.7296, -2.0055], [-78.7315, -2.0083], [-78.7358, -2.0096], [-78.7383, -2.0091], [-78.7458, -2.0132], [-78.7483, -2.0124], [-78.7555, -2.0144], [-78.76, -2.0143], [-78.7705, -2.02], [-78.7775, -2.0213], [-78.784, -2.0201], [-78.7885, -2.0149], [-78.7926, -2.0129], [-78.8034, -2.0131], [-78.8169, -2.0076], [-78.8195, -2.0049], [-78.8208, -1.9997], [-78.8211, -1.9846], [-78.8197, -1.9773], [-78.8203, -1.9686], [-78.8248, -1.9667], [-78.8148, -1.9589], [-78.8162, -1.9551], [-78.8138, -1.9397], [-78.8091, -1.9336], [-78.8037, -1.9323], [-78.8021, -1.9301], [-78.7824, -1.9214], [-78.7774, -1.9212], [-78.7665, -1.9074], [-78.7575, -1.9058], [-78.7524, -1.9073], [-78.7494, -1.9064], [-78.7354, -1.8978], [-78.7335, -1.8937], [-78.7219, -1.9001], [-78.7225, -1.9145], [-78.7237, -1.9154], [-78.7222, -1.9184], [-78.7223, -1.9214], [-78.7188, -1.9283], [-78.717, -1.9297], [-78.7142, -1.9291], [-78.7154, -1.9154], [-78.7124, -1.9087], [-78.7127, -1.9035], [-78.7114, -1.8991], [-78.7073, -1.8968], [-78.7056, -1.8944], [-78.7048, -1.8875], [-78.7021, -1.8794], [-78.6982, -1.874], [-78.6987, -1.8716], [-78.6959, -1.8688], [-78.6954, -1.8617], [-78.6905, -1.8587], [-78.6897, -1.8562], [-78.6847, -1.8518], [-78.6776, -1.8497], [-78.6736, -1.8505], [-78.6666, -1.8479], [-78.6628, -1.8497], [-78.6595, -1.8543], [-78.6561, -1.8552], [-78.6467, -1.8525], [-78.6418, -1.8495], [-78.6312, -1.8695], [-78.6306, -1.8718], [-78.6318, -1.8753], [-78.63, -1.8778]]], [[[-78.5962, -2.0925], [-78.5962, -2.0925], [-78.5962, -2.0925], [-78.5962, -2.0925]]]]}}, {"type": "Feature", "properties": {"dpa": "060751", "nombre": "Guanando"}, "geometry": {"type": "Polygon", "coordinates": [[[-78.5129, -1.472], [-78.5126, -1.4747], [-78.5145, -1.4806], [-78.5156, -1.4812], [-78.5127, -1.4862], [-78.5156, -1.4907], [-78.5139, -1.4964], [-78.5149, -1.499], [-78.5194, -1.5036], [-78.5224, -1.5115], [-78.5223, -1.5164], [-78.5184, -1.5195], [-78.518, -1.5237], [-78.534, -1.5337], [-78.5343, -1.5415], [-78.5397, -1.5432], [-78.5406, -1.5447], [-78.5391, -1.5489], [-78.5437, -1.5485], [-78.5459, -1.5505], [-78.5526, -1.5518], [-78.5549, -1.5429], [-78.5502, -1.5445], [-78.5385, -1.528], [-78.5232, -1.5192], [-78.5264, -1.5168], [-78.5284, -1.5121], [-78.5276, -1.492], [-78.5295, -1.4864], [-78.5334, -1.4812], [-78.5299, -1.4693], [-78.5129, -1.472]]]}}, {"type": "Feature", "properties": {"dpa": "060750", "nombre": "Guano"}, "geometry": {"type": "Polygon", "coordinates": [[[-78.5873, -1.5852], [-78.582, -1.5918], [-78.5789, -1.5991], [-78.5649, -1.5951], [-78.5617, -1.5911], [-78.5531, -1.5866], [-78.5512, -1.5909], [-78.5486, -1.5918], [-78.5489, -1.5955], [-78.5453, -1.6001], [-78.5467, -1.6038], [-78.55, -1.6037], [-78.5535, -1.6065], [-78.5539, -1.6123], [-78.5575, -1.6152], [-78.5574, -1.6213], [-78.5561, -1.6243], [-78.5581, -1.6325], [-78.5609, -1.6383], [-78.5699, -1.6401], [-78.5707, -1.6431], [-78.5747, -1.6444], [-78.5786, -1.6487], [-78.5808, -1.6493], [-78.5829, -1.6471], [-78.5859, -1.6462], [-78.5862, -1.6422], [-78.5873, -1.6415], [-78.5866, -1.6408], [-78.5884, -1.6392], [-78.5881, -1.6382], [-78.5917, -1.6375], [-78.5943, -1.6339], [-78.5954, -1.6342], [-78.5956, -1.6325], [-78.5971, -1.6326], [-78.5967, -1.6295], [-78.5999, -1.6273], [-78.6019, -1.6276], [-78.6023, -1.6261], [-78.6034, -1.6266], [-78.6032, -1.6252], [-78.6046, -1.626], [-78.604, -1.6244], [-78.6058, -1.6231], [-78.6057, -1.6216], [-78.6097, -1.6227], [-78.6123, -1.6262], [-78.6186, -1.6293], [-78.6218, -1.6335], [-78.6237, -1.6312], [-78.6261, -1.6315], [-78.6348, -1.6354], [-78.6385, -1.6394], [-78.6406, -1.6382], [-78.6451, -1.6417], [-78.6449, -1.6434], [-78.6469, -1.6462], [-78.6521, -1.6485], [-78.6548, -1.6464], [-78.6585, -1.6456], [-78.6602, -1.6435], [-78.6639, -1.6431], [-78.667, -1.6385], [-78.6716, -1.6391], [-78.6742, -1.6382], [-78.6786, -1.6288], [-78.6838, -1.6228], [-78.6715, -1.6188], [-78.6664, -1.6148], [-78.6694, -1.6068], [-78.6667, -1.5979], [-78.6694, -1.5942], [-78.6696, -1.5901], [-78.661, -1.5835], [-78.661, -1.5789], [-78.6589, -1.5738], [-78.6536, -1.5673], [-78.6438, -1.5672], [-78.6433, -1.5663], [-78.6422, -1.5614], [-78.638, -1.5559], [-78.6371, -1.5519], [-78.6392, -1.5423], [-78.6379, -1.5296], [-78.6303, -1.5354], [-78.6301, -1.5379], [-78.6264, -1.5445], [-78.6261, -1.55], [-78.6227, -1.5569], [-78.6171, -1.5625], [-78.6135, -1.5694], [-78.6023, -1.5787], [-78.6024, -1.5816], [-78.6007, -1.5853], [-78.6021, -1.5905], [-78.5988, -1.5904], [-78.5947, -1.586], [-78.5873, -1.5852]]]}}, {"type": "Feature", "properties": {"dpa": "060253", "nombre": "Guasuntos"}, "geometry": {"type": "Polygon", "coordinates": [[[-78.7433, -2.2022], [-78.741, -2.2067], [-78.7439, -2.2108], [-78.7481, -2.2138], [-78.7498, -2.2176], [-78.7541, -2.222], [-78.7557, -2.2314], [-78.7636, -2.2398], [-78.7675, -2.2522], [-78.7747, -2.2579], [-78.7769, -2.2639], [-78.7849, -2.2737], [-78.7862, -2.2667], [-78.7887, -2.2628], [-78.7907, -2.2611], [-78.7933, -2.2614], [-78.7961, -2.257], [-78.8045, -2.2551], [-78.8091, -2.2501], [-78.8094, -2.2469], [-78.814, -2.2422], [-78.8187, -2.2417], [-78.8211, -2.2389], [-78.8223, -2.2307], [-78.8209, -2.225], [-78.8242, -2.2192], [-78.8244, -2.2168], [-78.8173, -2.2097], [-78.809, -2.205], [-78.7863, -2.2027], [-78.7739, -2.1958], [-78.7654, -2.1951], [-78.7565, -2.1912], [-78.7517, -2.1915], [-78.7482, -2.1937], [-78.7433, -2.2022]]]}}, {"type": "Feature", "properties": {"dpa": "060254", "nombre": "Huigra"}, "geometry": {"type": "Polygon", "coordinates": [[[-78.9576, -2.2725], [-78.9648, -2.2762], [-78.9664, -2.2792], [-78.9645, -2.2805], [-78.9626, -2.2845], [-78.9618, -2.2901], [-78.9562, -2.2955], [-78.9534, -2.3035], [-78.9509, -2.3051], [-78.9508, -2.3114], [-78.9489, -2.315], [-78.949, -2.3175], [-78.9516, -2.3195], [-78.9557, -2.327], [-78.9597, -2.3262], [-78.9644, -2.3275], [-78.9797, -2.3369], [-78.9837, -2.3352], [-78.9868, -2.336], [-78.9893, -2.3343], [-78.9909, -2.3349], [-78.9952, -2.3324], [-79.0001, -2.332], [-79.0044, -2.3298], [-79.0182, -2.3309], [-79.0274, -2.3353], [-79.043, -2.3402], [-79.0447, -2.3389], [-79.0445, -2.3348], [-79.0465, -2.3315], [-79.0522, -2.3292], [-79.0504, -2.3233], [-79.0511, -2.322], [-79.0583, -2.3179], [-79.0594, -2.3153], [-79.0634, -2.3142], [-79.0659, -2.306], [-79.0622, -2.3028], [-79.0617, -2.3002], [-79.0649, -2.2988], [-79.0669, -2.2997], [-79.0667, -2.2965], [-79.0698, -2.2951], [-79.0707, -2.292], [-79.074, -2.2923], [-79.0776, -2.2902], [-79.0789, -2.2916], [-79.0827, -2.2914], [-79.0858, -2.2865], [-79.0886, -2.2861], [-79.0907, -2.2817], [-79.0898, -2.278], [-79.0872, -2.2784], [-79.0843, -2.2817], [-79.0786, -2.2819], [-79.0707, -2.2848], [-79.0598, -2.2773], [-79.0572, -2.2708], [-79.0474, -2.2588], [-79.043, -2.2611], [-79.0389, -2.2595], [-79.0312, -2.2485], [-79.0234, -2.2419], [-79.0156, -2.2371], [-79.0146, -2.2326], [-79.0104, -2.2304], [-79.001, -2.2281], [-78.9988, -2.2237], [-78.9984, -2.2196], [-78.9901, -2.2146], [-78.988, -2.2161], [-78.9825, -2.2164], [-78.9744, -2.2118], [-78.9709, -2.208], [-78.9673, -2.2076], [-78.9661, -2.2051], [-78.9656, -2.2066], [-78.9623, -2.2053], [-78.9593, -2.2005], [-78.9515, -2.1992], [-78.954, -2.2018], [-78.9543, -2.2046], [-78.9589, -2.2088], [-78.9606, -2.2143], [-78.9592, -2.2233], [-78.9601, -2.2266], [-78.9537, -2.2357], [-78.9538, -2.2455], [-78.9549, -2.2479], [-78.9586, -2.2508], [-78.9601, -2.2548], [-78.9596, -2.2624], [-78.9568, -2.2684], [-78.9576, -2.2725]]]}}, {"type": "Feature", "properties": {"dpa": "060752", "nombre": "Ilapo"}, "geometry": {"type": "Polygon", "coordinates": [[[-78.5603, -1.5118], [-78.5647, -1.5133], [-78.5642, -1.5148], [-78.5605, -1.5146], [-78.568, -1.5204], [-78.5681, -1.5236], [-78.5715, -1.5265], [-78.5711, -1.5277], [-78.5745, -1.5319], [-78.5745, -1.5343], [-78.5721, -1.5361], [-78.5711, -1.5398], [-78.574, -1.5404], [-78.5728, -1.5427], [-78.5734, -1.545], [-78.5672, -1.5523], [-78.552, -1.5521], [-78.5482, -1.556], [-78.5468, -1.5599], [-78.5553, -1.5709], [-78.5634, -1.5752], [-78.5579, -1.5848], [-78.5536, -1.5866], [-78.5617, -1.5911], [-78.5649, -1.5951], [-78.5789, -1.5991], [-78.582, -1.5918], [-78.5873, -1.5852], [-78.5868, -1.5839], [-78.5899, -1.5772], [-78.5881, -1.5635], [-78.5888, -1.5566], [-78.5921, -1.5472], [-78.5914, -1.5425], [-78.593, -1.5391], [-78.5974, -1.5343], [-78.6004, -1.5329], [-78.6098, -1.5336], [-78.6125, -1.5299], [-78.6206, -1.5236], [-78.618, -1.5176], [-78.6122, -1.5152], [-78.6108, -1.5128], [-78.6029, -1.5123], [-78.5988, -1.5079], [-78.5927, -1.5074], [-78.5758, -1.5098], [-78.5709, -1.5092], [-78.57, -1.5081], [-78.5624, -1.5095], [-78.5603, -1.5118]]]}}, {"type": "Feature", "properties": {"dpa": "060353", "nombre": "Juan De Velasco (pangor)"}, "geometry": {"type": "Polygon", "coordinates": [[[-78.8358, -1.7534], [-78.8341, -1.7555], [-78.8345, -1.7574], [-78.84, -1.7734], [-78.8359, -1.7778], [-78.8375, -1.7819], [-78.8374, -1.7877], [-78.8457, -1.7967], [-78.8468, -1.8059], [-78.8455, -1.8123], [-78.8469, -1.8272], [-78.8468, -1.8308], [-78.8389, -1.8321], [-78.8363, -1.8344], [-78.8343, -1.8405], [-78.84, -1.843], [-78.8498, -1.8579], [-78.8493, -1.8743], [-78.8452, -1.8825], [-78.851, -1.892], [-78.8505, -1.9023], [-78.8515, -1.9058], [-78.8505, -1.909], [-78.8522, -1.9113], [-78.8529, -1.9182], [-78.8561, -1.9235], [-78.855, -1.925], [-78.856, -1.9269], [-78.8523, -1.9312], [-78.8525, -1.9398], [-78.861, -1.9316], [-78.8642, -1.9312], [-78.8778, -1.9398], [-78.8795, -1.9423], [-78.8875, -1.9384], [-78.895, -1.9388], [-78.9024, -1.9406], [-78.9075, -1.9481], [-78.9139, -1.9501], [-78.9182, -1.9468], [-78.9253, -1.9439], [-78.9268, -1.9364], [-78.9313, -1.9331], [-78.9427, -1.9385], [-78.9528, -1.9397], [-78.9623, -1.9379], [-78.965, -1.9347], [-78.9643, -1.9309], [-78.9676, -1.9258], [-78.9671, -1.9225], [-78.9683, -1.9185], [-78.971, -1.9167], [-78.9792, -1.9157], [-78.981, -1.9164], [-78.9816, -1.9187], [-78.9915, -1.9176], [-78.9954, -1.9193], [-78.9968, -1.9207], [-78.9989, -1.9306], [-79.0039, -1.9349], [-79.0079, -1.9352], [-79.0082, -1.9281], [-79.0068, -1.9246], [-79.0081, -1.9212], [-79.0077, -1.9148], [-79.0094, -1.9104], [-79.0076, -1.9078], [-79.0078, -1.9041], [-79.0149, -1.8884], [-79.0151, -1.8854], [-79.0128, -1.88], [-79.0164, -1.8738], [-79.0173, -1.8665], [-79.0125, -1.8672], [-79.0065, -1.8644], [-78.9975, -1.8555], [-78.9936, -1.856], [-78.9885, -1.8529], [-78.983, -1.8524], [-78.9803, -1.8502], [-78.9791, -1.8468], [-78.975, -1.8454], [-78.9737, -1.8419], [-78.9716, -1.8408], [-78.9717, -1.8391], [-78.9636, -1.8285], [-78.9583, -1.827], [-78.9578, -1.8245], [-78.9555, -1.8237], [-78.9539, -1.8203], [-78.9403, -1.8165], [-78.9275, -1.8058], [-78.9133, -1.8036], [-78.9114, -1.8015], [-78.9099, -1.796], [-78.9019, -1.7872], [-78.8962, -1.7904], [-78.8939, -1.7894], [-78.8926, -1.7866], [-78.8909, -1.7699], [-78.889, -1.7644], [-78.8833, -1.7553], [-78.8835, -1.752], [-78.8847, -1.7511], [-78.8817, -1.744], [-78.8729, -1.7518], [-78.8663, -1.7492], [-78.8538, -1.7516], [-78.8478, -1.7484], [-78.8358, -1.7534]]]}}, {"type": "Feature", "properties": {"dpa": "060955", "nombre": "La Candelaria"}, "geometry": {"type": "Polygon", "coordinates": [[[-78.4294, -1.6407], [-78.4197, -1.6413], [-78.4174, -1.6357], [-78.4189, -1.6332], [-78.4185, -1.6307], [-78.4159, -1.6262], [-78.4136, -1.6153], [-78.4103, -1.6155], [-78.4028, -1.6233], [-78.3994, -1.6232], [-78.3948, -1.6228], [-78.3943, -1.6208], [-78.3909, -1.6184], [-78.3907, -1.6157], [-78.3788, -1.6136], [-78.3666, -1.6136], [-78.364, -1.6317], [-78.3661, -1.6335], [-78.3667, -1.6361], [-78.3636, -1.6442], [-78.3705, -1.6528], [-78.3722, -1.657], [-78.3743, -1.6571], [-78.3769, -1.6546], [-78.3827, -1.6548], [-78.3948, -1.6603], [-78.4011, -1.6609], [-78.4056, -1.6645], [-78.4108, -1.6653], [-78.4089, -1.6747], [-78.4198, -1.6683], [-78.4192, -1.6701], [-78.4207, -1.6724], [-78.4308, -1.6747], [-78.4372, -1.6722], [-78.4389, -1.6731], [-78.4465, -1.6713], [-78.4515, -1.6727], [-78.4588, -1.6724], [-78.465, -1.665], [-78.4801, -1.6585], [-78.4889, -1.6584], [-78.4956, -1.6553], [-78.5035, -1.6577], [-78.5081, -1.6557], [-78.5129, -1.6509], [-78.5144, -1.6415], [-78.5131, -1.6357], [-78.5165, -1.634], [-78.5162, -1.6313], [-78.5131, -1.6288], [-78.514, -1.6222], [-78.5122, -1.6204], [-78.5124, -1.6171], [-78.5107, -1.6142], [-78.5114, -1.6106], [-78.5129, -1.6086], [-78.5152, -1.6082], [-78.5085, -1.6065], [-78.5081, -1.6054], [-78.4996, -1.6017], [-78.4923, -1.6008], [-78.4907, -1.5995], [-78.4838, -1.6021], [-78.4727, -1.6012], [-78.4655, -1.6047], [-78.4633, -1.6069], [-78.4623, -1.6135], [-78.4579, -1.6188], [-78.4497, -1.6189], [-78.4424, -1.6267], [-78.4387, -1.624], [-78.4395, -1.6358], [-78.4348, -1.6406], [-78.4294, -1.6407]]]}}, {"type": "Feature", "properties": {"dpa": "060753", "nombre": "La Providencia"}, "geometry": {"type": "Polygon", "coordinates": [[[-78.5391, -1.5489], [-78.5374, -1.5542], [-78.5336, -1.5557], [-78.5346, -1.56], [-78.5338, -1.5616], [-78.5361, -1.5654], [-78.5357, -1.5697], [-78.5373, -1.5752], [-78.5329, -1.5799], [-78.5356, -1.5858], [-78.535, -1.5894], [-78.5377, -1.5903], [-78.5387, -1.5936], [-78.5416, -1.5902], [-78.5464, -1.5904], [-78.5486, -1.5918], [-78.5508, -1.5912], [-78.5527, -1.5867], [-78.5565, -1.5862], [-78.5579, -1.5848], [-78.5634, -1.5752], [-78.5553, -1.5709], [-78.5468, -1.5599], [-78.5482, -1.556], [-78.5526, -1.5518], [-78.5459, -1.5505], [-78.5437, -1.5485], [-78.5391, -1.5489]]]}}, {"type": "Feature", "properties": {"dpa": "060155", "nombre": "Lican"}, "geometry": {"type": "Polygon", "coordinates": [[[-78.7205, -1.6194], [-78.7116, -1.6258], [-78.6892, -1.6256], [-78.6838, -1.6228], [-78.6807, -1.6256], [-78.6772, -1.6328], [-78.6789, -1.6354], [-78.683, -1.637], [-78.6812, -1.64], [-78.6858, -1.6433], [-78.687, -1.6425], [-78.6889, -1.6438], [-78.6884, -1.6478], [-78.6909, -1.6478], [-78.6906, -1.6491], [-78.6923, -1.649], [-78.6948, -1.6533], [-78.6938, -1.6543], [-78.6952, -1.6559], [-78.6962, -1.6555], [-78.6985, -1.6593], [-78.6942, -1.6602], [-78.693, -1.6616], [-78.6902, -1.6613], [-78.689, -1.6631], [-78.6866, -1.663], [-78.6825, -1.6701], [-78.6861, -1.6697], [-78.6913, -1.6714], [-78.6976, -1.6686], [-78.7029, -1.67], [-78.7056, -1.6676], [-78.7088, -1.6697], [-78.7135, -1.6698], [-78.7168, -1.6719], [-78.7187, -1.669], [-78.7187, -1.6644], [-78.7206, -1.6601], [-78.7177, -1.6542], [-78.7188, -1.6516], [-78.7257, -1.6401], [-78.7329, -1.6354], [-78.7373, -1.6293], [-78.7409, -1.6277], [-78.7356, -1.6167], [-78.7316, -1.6201], [-78.7311, -1.6191], [-78.7205, -1.6194]]]}}, {"type": "Feature", "properties": {"dpa": "060156", "nombre": "Licto"}, "geometry": {"type": "Polygon", "coordinates": [[[-78.5862, -1.7915], [-78.5842, -1.795], [-78.5853, -1.7992], [-78.5881, -1.8006], [-78.595, -1.8009], [-78.5986, -1.8045], [-78.5965, -1.8085], [-78.596, -1.8159], [-78.5997, -1.8208], [-78.5998, -1.8262], [-78.5968, -1.8363], [-78.5976, -1.837], [-78.5963, -1.8394], [-78.5968, -1.8429], [-78.5985, -1.845], [-78.6071, -1.8475], [-78.6086, -1.8508], [-78.6108, -1.8517], [-78.6101, -1.8535], [-78.6058, -1.8562], [-78.6074, -1.8581], [-78.6065, -1.8612], [-78.6048, -1.8627], [-78.6058, -1.8637], [-78.6042, -1.8644], [-78.6085, -1.8673], [-78.6111, -1.8677], [-78.6115, -1.8721], [-78.6142, -1.8742], [-78.6171, -1.8706], [-78.6206, -1.8724], [-78.6248, -1.8704], [-78.6289, -1.8654], [-78.6291, -1.8567], [-78.6308, -1.8533], [-78.6308, -1.8497], [-78.627, -1.8441], [-78.6232, -1.8312], [-78.6299, -1.8235], [-78.6294, -1.8166], [-78.6351, -1.8148], [-78.6337, -1.8113], [-78.6383, -1.7917], [-78.6418, -1.7887], [-78.6431, -1.7851], [-78.6467, -1.7819], [-78.6504, -1.776], [-78.6463, -1.7678], [-78.6457, -1.7556], [-78.643, -1.7505], [-78.6383, -1.7471], [-78.6334, -1.739], [-78.6233, -1.7446], [-78.6222, -1.7426], [-78.6197, -1.7419], [-78.6184, -1.7401], [-78.6159, -1.7429], [-78.6154, -1.7468], [-78.6107, -1.7524], [-78.6073, -1.7541], [-78.6055, -1.7591], [-78.6024, -1.7584], [-78.6007, -1.7607], [-78.5988, -1.7612], [-78.5989, -1.7642], [-78.5964, -1.7692], [-78.5854, -1.7818], [-78.5859, -1.7879], [-78.5873, -1.7899], [-78.5862, -1.7915]]]}}, {"type": "Feature", "properties": {"dpa": "060554", "nombre": "Llagos"}, "geometry": {"type": "Polygon", "coordinates": [[[-78.8898, -2.3991], [-78.9041, -2.4102], [-78.9086, -2.4167], [-78.9118, -2.4193], [-78.916, -2.4121], [-78.9205, -2.4121], [-78.9228, -2.408], [-78.9278, -2.4051], [-78.933, -2.4039], [-78.9355, -2.4052], [-78.9439, -2.4013], [-78.9461, -2.402], [-78.9518, -2.4005], [-78.9583, -2.3965], [-78.9749, -2.3915], [-78.9767, -2.3834], [-78.9741, -2.3804], [-78.9762, -2.3784], [-78.9854, -2.376], [-78.9895, -2.3775], [-78.9936, -2.3762], [-79.0051, -2.3775], [-79.01, -2.3752], [-79.0156, -2.3664], [-79.0184, -2.3644], [-79.0273, -2.3624], [-79.0282, -2.3587], [-79.0373, -2.3478], [-79.0396, -2.3422], [-79.043, -2.3402], [-79.0274, -2.3353], [-79.0182, -2.3309], [-79.0044, -2.3298], [-79.0001, -2.332], [-78.9952, -2.3324], [-78.9909, -2.3349], [-78.9893, -2.3343], [-78.9868, -2.336], [-78.9837, -2.3352], [-78.9792, -2.3368], [-78.9644, -2.3275], [-78.9597, -2.3262], [-78.9557, -2.327], [-78.9516, -2.3195], [-78.949, -2.3175], [-78.9498, -2.328], [-78.9484, -2.3331], [-78.9503, -2.3405], [-78.9456, -2.3504], [-78.9453, -2.3574], [-78.9384, -2.3629], [-78.938, -2.3709], [-78.9366, -2.3731], [-78.9353, -2.385], [-78.9337, -2.3896], [-78.928, -2.3885], [-78.9224, -2.3892], [-78.9161, -2.3918], [-78.9061, -2.3928], [-78.9032, -2.3945], [-78.8991, -2.3926], [-78.8961, -2.3961], [-78.8898, -2.3991]]]}}, {"type": "Feature", "properties": {"dpa": "060952", "nombre": "Matus"}, "geometry": {"type": "Polygon", "coordinates": [[[-78.3705, -1.5757], [-78.3722, -1.5824], [-78.3773, -1.5852], [-78.374, -1.5912], [-78.373, -1.5999], [-78.3688, -1.605], [-78.364, -1.6066], [-78.3666, -1.6136], [-78.3788, -1.6136], [-78.3907, -1.6157], [-78.3909, -1.6184], [-78.3943, -1.6208], [-78.3948, -1.6228], [-78.3994, -1.6232], [-78.4028, -1.6233], [-78.4103, -1.6155], [-78.4136, -1.6153], [-78.4159, -1.6262], [-78.4185, -1.6307], [-78.4189, -1.6332], [-78.4174, -1.6357], [-78.4197, -1.6413], [-78.4285, -1.6408], [-78.4294, -1.6407], [-78.4427, -1.6074], [-78.4595, -1.6045], [-78.4638, -1.5967], [-78.4687, -1.5969], [-78.4744, -1.5952], [-78.4915, -1.593], [-78.5063, -1.5861], [-78.5074, -1.5876], [-78.5126, -1.5848], [-78.5144, -1.5792], [-78.5127, -1.5745], [-78.5137, -1.5732], [-78.5128, -1.5693], [-78.5149, -1.5588], [-78.5103, -1.5558], [-78.5131, -1.5486], [-78.5107, -1.5468], [-78.5111, -1.5405], [-78.5084, -1.5358], [-78.507, -1.5394], [-78.5079, -1.5416], [-78.5068, -1.5459], [-78.5025, -1.5537], [-78.4997, -1.5542], [-78.4954, -1.552], [-78.4905, -1.5556], [-78.4873, -1.5551], [-78.4847, -1.5593], [-78.4731, -1.5654], [-78.4699, -1.5682], [-78.4672, -1.5712], [-78.4653, -1.5756], [-78.4571, -1.5788], [-78.4501, -1.5834], [-78.438, -1.5841], [-78.4276, -1.572], [-78.4239, -1.5702], [-78.422, -1.5677], [-78.419, -1.5675], [-78.4147, -1.5702], [-78.4096, -1.5698], [-78.4078, -1.567], [-78.4043, -1.5645], [-78.4023, -1.5645], [-78.4027, -1.5634], [-78.3994, -1.5592], [-78.4025, -1.5514], [-78.4006, -1.5527], [-78.3968, -1.5517], [-78.3927, -1.5533], [-78.3911, -1.5556], [-78.3907, -1.5617], [-78.382, -1.5668], [-78.3812, -1.5699], [-78.3827, -1.5719], [-78.3803, -1.5753], [-78.3705, -1.5757]]]}}, {"type": "Feature", "properties": {"dpa": "060255", "nombre": "Multitud"}, "geometry": {"type": "Polygon", "coordinates": [[[-78.9485, -2.118], [-78.9437, -2.121], [-78.9412, -2.1256], [-78.9408, -2.1315], [-78.9419, -2.1331], [-78.937, -2.1487], [-78.938, -2.1524], [-78.9312, -2.1617], [-78.9311, -2.1738], [-78.9362, -2.1813], [-78.9355, -2.1863], [-78.9382, -2.1882], [-78.94, -2.1846], [-78.9435, -2.1876], [-78.949, -2.1879], [-78.9552, -2.191], [-78.9585, -2.1917], [-78.9652, -2.1906], [-78.9688, -2.1917], [-78.9696, -2.1844], [-78.9741, -2.1893], [-78.9808, -2.1915], [-78.9866, -2.1908], [-78.9899, -2.1931], [-78.9976, -2.1911], [-79.0079, -2.1864], [-79.0135, -2.1867], [-79.0199, -2.1804], [-79.022, -2.1683], [-79.0255, -2.1638], [-79.0288, -2.1566], [-79.03, -2.1503], [-79.0341, -2.148], [-79.0389, -2.1479], [-79.0416, -2.1461], [-79.0422, -2.1415], [-79.0466, -2.1373], [-79.0427, -2.1331], [-79.0408, -2.1291], [-79.0363, -2.1259], [-79.0316, -2.1177], [-79.0259, -2.1016], [-79.0275, -2.0948], [-79.0253, -2.0928], [-79.0246, -2.0893], [-79.0256, -2.0876], [-79.0222, -2.0853], [-79.0119, -2.0854], [-79.0067, -2.083], [-79.0033, -2.0828], [-78.9988, -2.089], [-78.9931, -2.0925], [-78.9876, -2.0905], [-78.9795, -2.0906], [-78.9768, -2.0931], [-78.9752, -2.097], [-78.9772, -2.1057], [-78.9763, -2.1136], [-78.9724, -2.1163], [-78.9682, -2.1137], [-78.9658, -2.1086], [-78.9608, -2.1097], [-78.9603, -2.1087], [-78.9561, -2.115], [-78.9536, -2.1136], [-78.9485, -2.118]]]}}, {"type": "Feature", "properties": {"dpa": "060652", "nombre": "Palmira"}, "geometry": {"type": "Polygon", "coordinates": [[[-78.6709, -2.1567], [-78.69, -2.1568], [-78.699, -2.1489], [-78.7014, -2.1409], [-78.7066, -2.1427], [-78.7073, -2.13], [-78.7132, -2.1244], [-78.7137, -2.12], [-78.7246, -2.1212], [-78.731, -2.1148], [-78.7321, -2.1116], [-78.7315, -2.1081], [-78.7351, -2.1048], [-78.7389, -2.095], [-78.7406, -2.0949], [-78.7409, -2.09], [-78.7421, -2.0885], [-78.746, -2.09], [-78.7459, -2.0908], [-78.7515, -2.0917], [-78.7631, -2.0993], [-78.7668, -2.1085], [-78.7754, -2.1132], [-78.7785, -2.1176], [-78.786, -2.1225], [-78.7938, -2.1305], [-78.7968, -2.1312], [-78.8004, -2.1222], [-78.8053, -2.1186], [-78.8077, -2.1148], [-78.8122, -2.1143], [-78.8195, -2.109], [-78.8226, -2.1098], [-78.8279, -2.1091], [-78.831, -2.1008], [-78.8418, -2.0994], [-78.842, -2.1038], [-78.8453, -2.11], [-78.8542, -2.1096], [-78.8558, -2.1115], [-78.8559, -2.1169], [-78.8633, -2.1213], [-78.8725, -2.1117], [-78.8759, -2.1113], [-78.8831, -2.1138], [-78.8854, -2.11], [-78.8902, -2.1086], [-78.8952, -2.1049], [-78.8885, -2.0986], [-78.8803, -2.0984], [-78.8715, -2.0937], [-78.8687, -2.0869], [-78.8685, -2.0832], [-78.8628, -2.0747], [-78.8594, -2.0729], [-78.8534, -2.075], [-78.8516, -2.0747], [-78.8476, -2.0676], [-78.84, -2.0626], [-78.8348, -2.0556], [-78.8341, -2.0516], [-78.8371, -2.0464], [-78.839, -2.0366], [-78.8377, -2.0259], [-78.8315, -2.0145], [-78.8366, -2.0099], [-78.8381, -2.004], [-78.8413, -2.0004], [-78.8431, -1.9987], [-78.8459, -1.9987], [-78.8497, -1.9944], [-78.8415, -1.9878], [-78.8281, -1.9869], [-78.8237, -1.9791], [-78.8248, -1.9667], [-78.8203, -1.9686], [-78.8197, -1.9773], [-78.8211, -1.9846], [-78.8208, -1.9997], [-78.8195, -2.0049], [-78.8169, -2.0076], [-78.8034, -2.0131], [-78.7926, -2.0129], [-78.7885, -2.0149], [-78.784, -2.0201], [-78.7775, -2.0213], [-78.7705, -2.02], [-78.76, -2.0143], [-78.7555, -2.0144], [-78.7483, -2.0124], [-78.7458, -2.0132], [-78.7383, -2.0091], [-78.7358, -2.0096], [-78.7315, -2.0083], [-78.7296, -2.0055], [-78.7249, -2.0051], [-78.724, -2.0038], [-78.7239, -2.0081], [-78.7297, -2.0202], [-78.7298, -2.0266], [-78.7286, -2.0291], [-78.726, -2.0304], [-78.7247, -2.0343], [-78.7214, -2.0362], [-78.7182, -2.044], [-78.7145, -2.048], [-78.7074, -2.0483], [-78.7013, -2.0502], [-78.6995, -2.057], [-78.701, -2.0595], [-78.6989, -2.0633], [-78.6939, -2.0674], [-78.6892, -2.0681], [-78.6861, -2.0706], [-78.6817, -2.0721], [-78.6743, -2.0704], [-78.6659, -2.0741], [-78.6619, -2.0743], [-78.6437, -2.0832], [-78.6391, -2.0902], [-78.6412, -2.0997], [-78.633, -2.0968], [-78.6308, -2.1044], [-78.6276, -2.1068], [-78.6257, -2.1107], [-78.6333, -2.1108], [-78.6372, -2.1083], [-78.6353, -2.1177], [-78.6393, -2.1229], [-78.6349, -2.1277], [-78.6339, -2.1352], [-78.6393, -2.1383], [-78.6458, -2.1489], [-78.6495, -2.1592], [-78.6646, -2.1615], [-78.6709, -2.1567]]]}}, {"type": "Feature", "properties": {"dpa": "060850", "nombre": "Pallatanga"}, "geometry": {"type": "Polygon", "coordinates": [[[-78.8525, -1.9398], [-78.8442, -1.9391], [-78.8385, -1.9342], [-78.8321, -1.9377], [-78.8294, -1.9409], [-78.8245, -1.94], [-78.818, -1.947], [-78.8147, -1.9476], [-78.8162, -1.9551], [-78.8145, -1.9583], [-78.8248, -1.9667], [-78.8237, -1.9791], [-78.8281, -1.9869], [-78.8415, -1.9878], [-78.8497, -1.9944], [-78.8459, -1.9987], [-78.8431, -1.9987], [-78.8413, -2.0004], [-78.8381, -2.004], [-78.8366, -2.0099], [-78.8315, -2.0145], [-78.8377, -2.0259], [-78.839, -2.0366], [-78.8371, -2.0464], [-78.8341, -2.0516], [-78.8348, -2.0556], [-78.84, -2.0626], [-78.8476, -2.0676], [-78.8516, -2.0747], [-78.8534, -2.075], [-78.8594, -2.0729], [-78.8628, -2.0747], [-78.8685, -2.0832], [-78.8687, -2.0869], [-78.8714, -2.0936], [-78.8803, -2.0984], [-78.8885, -2.0986], [-78.8942, -2.1043], [-78.9001, -2.106], [-78.9012, -2.1078], [-78.9063, -2.1046], [-78.9068, -2.1122], [-78.9083, -2.1134], [-78.9145, -2.1133], [-78.9194, -2.1164], [-78.9282, -2.1146], [-78.9321, -2.1178], [-78.9347, -2.1172], [-78.9357, -2.1186], [-78.9432, -2.1161], [-78.9485, -2.118], [-78.9536, -2.1136], [-78.9561, -2.115], [-78.9603, -2.1087], [-78.9608, -2.1097], [-78.9658, -2.1086], [-78.9682, -2.1137], [-78.9724, -2.1163], [-78.9763, -2.1136], [-78.9772, -2.1057], [-78.9752, -2.097], [-78.9768, -2.0931], [-78.9795, -2.0906], [-78.9876, -2.0905], [-78.9931, -2.0925], [-78.9988, -2.089], [-79.0033, -2.0828], [-79.0067, -2.083], [-79.0119, -2.0854], [-79.0168, -2.0849], [-79.0236, -2.0862], [-79.0226, -2.0757], [-79.0237, -2.0727], [-79.0254, -2.0699], [-79.0294, -2.0681], [-79.0302, -2.0655], [-79.0326, -2.0648], [-79.0348, -2.061], [-79.0369, -2.0607], [-79.0352, -2.0575], [-79.0349, -2.0466], [-79.0321, -2.0397], [-79.0322, -2.0366], [-79.0295, -2.0344], [-79.0299, -2.0264], [-79.0291, -2.0215], [-79.0272, -2.0203], [-79.0265, -2.0182], [-79.0261, -2.0095], [-79.0184, -2.001], [-79.0165, -1.9951], [-79.0161, -1.9818], [-79.0136, -1.9666], [-79.0164, -1.9602], [-79.0129, -1.9514], [-79.0081, -1.9446], [-79.01, -1.9371], [-79.0079, -1.9352], [-79.0039, -1.9349], [-78.9989, -1.9306], [-78.9968, -1.9207], [-78.9954, -1.9193], [-78.9915, -1.9176], [-78.9816, -1.9187], [-78.9797, -1.9157], [-78.9706, -1.9168], [-78.9679, -1.9194], [-78.9676, -1.9258], [-78.9643, -1.9309], [-78.965, -1.9347], [-78.9627, -1.9377], [-78.9528, -1.9397], [-78.9427, -1.9385], [-78.9313, -1.9331], [-78.9268, -1.9364], [-78.9253, -1.9439], [-78.9182, -1.9468], [-78.9139, -1.9501], [-78.9075, -1.9481], [-78.9024, -1.9406], [-78.895, -1.9388], [-78.8875, -1.9384], [-78.8795, -1.9423], [-78.8778, -1.9398], [-78.8642, -1.9312], [-78.861, -1.9316], [-78.8525, -1.9398]]]}}, {"type": "Feature", "properties": {"dpa": "060950", "nombre": "Penipe"}, "geometry": {"type": "Polygon", "coordinates": [[[-78.5084, -1.5358], [-78.5198, -1.5396], [-78.5276, -1.5463], [-78.5259, -1.549], [-78.5257, -1.5548], [-78.5231, -1.557], [-78.5236, -1.5591], [-78.5135, -1.5638], [-78.5128, -1.5693], [-78.5137, -1.5732], [-78.5127, -1.5745], [-78.5144, -1.5792], [-78.5126, -1.5848], [-78.5074, -1.5876], [-78.5063, -1.5861], [-78.4915, -1.593], [-78.4744, -1.5952], [-78.4687, -1.5969], [-78.4638, -1.5967], [-78.4595, -1.6045], [-78.4427, -1.6074], [-78.4294, -1.6407], [-78.4348, -1.6406], [-78.4395, -1.6358], [-78.4387, -1.624], [-78.4424, -1.6267], [-78.4497, -1.6189], [-78.4579, -1.6188], [-78.4623, -1.6135], [-78.4633, -1.6069], [-78.4717, -1.6015], [-78.4838, -1.6021], [-78.4907, -1.5995], [-78.4923, -1.6008], [-78.4996, -1.6017], [-78.5081, -1.6054], [-78.5085, -1.6065], [-78.5152, -1.6082], [-78.5207, -1.6046], [-78.5287, -1.6034], [-78.5359, -1.6048], [-78.5385, -1.6021], [-78.5397, -1.5985], [-78.5482, -1.592], [-78.5473, -1.5906], [-78.5416, -1.5902], [-78.5387, -1.5936], [-78.5377, -1.5903], [-78.535, -1.5894], [-78.5356, -1.5858], [-78.5329, -1.5799], [-78.5366, -1.5768], [-78.5373, -1.5745], [-78.5357, -1.5697], [-78.5359, -1.5647], [-78.5338, -1.5616], [-78.5346, -1.56], [-78.5336, -1.5557], [-78.5376, -1.5539], [-78.5406, -1.5447], [-78.5397, -1.5432], [-78.5343, -1.5415], [-78.534, -1.5337], [-78.5182, -1.5241], [-78.5176, -1.5273], [-78.516, -1.5291], [-78.5111, -1.5302], [-78.509, -1.532], [-78.5079, -1.5336], [-78.5084, -1.5358]]]}}, {"type": "Feature", "properties": {"dpa": "060256", "nombre": "Pistishi (nariz Del Diablo)"}, "geometry": {"type": "Polygon", "coordinates": [[[-78.8722, -2.2444], [-78.8719, -2.2509], [-78.8683, -2.2538], [-78.8641, -2.262], [-78.8769, -2.2622], [-78.877, -2.2678], [-78.8828, -2.2707], [-78.8834, -2.276], [-78.8825, -2.2786], [-78.8848, -2.2789], [-78.8855, -2.28], [-78.8929, -2.2665], [-78.8951, -2.257], [-78.8976, -2.253], [-78.8844, -2.2459], [-78.8793, -2.2443], [-78.8756, -2.2455], [-78.8722, -2.2444]]]}}, {"type": "Feature", "properties": {"dpa": "060953", "nombre": "Puela"}, "geometry": {"type": "Polygon", "coordinates": [[[-78.392, -1.492], [-78.3882, -1.4938], [-78.3823, -1.4924], [-78.375, -1.4933], [-78.3701, -1.4974], [-78.3648, -1.497], [-78.3635, -1.498], [-78.3648, -1.5032], [-78.3649, -1.5131], [-78.3593, -1.5168], [-78.3578, -1.5203], [-78.358, -1.5216], [-78.3638, -1.5236], [-78.364, -1.5294], [-78.3722, -1.5296], [-78.3747, -1.5272], [-78.3793, -1.527], [-78.3812, -1.5257], [-78.3828, -1.5269], [-78.3864, -1.5268], [-78.3896, -1.5294], [-78.3943, -1.5277], [-78.3972, -1.5247], [-78.3991, -1.5258], [-78.4105, -1.5257], [-78.4129, -1.5272], [-78.4144, -1.5261], [-78.4143, -1.5238], [-78.4166, -1.5245], [-78.4222, -1.5228], [-78.4246, -1.5246], [-78.4259, -1.5284], [-78.4283, -1.5296], [-78.4445, -1.5309], [-78.4483, -1.5333], [-78.4531, -1.5341], [-78.4569, -1.5327], [-78.4586, -1.5292], [-78.4563, -1.5207], [-78.4578, -1.5155], [-78.4674, -1.5101], [-78.4779, -1.5131], [-78.483, -1.5168], [-78.4908, -1.5195], [-78.4964, -1.519], [-78.4972, -1.5206], [-78.502, -1.5234], [-78.5098, -1.5203], [-78.5181, -1.5208], [-78.5188, -1.5189], [-78.5223, -1.5164], [-78.522, -1.5087], [-78.5139, -1.4964], [-78.5156, -1.4907], [-78.5128, -1.4872], [-78.5118, -1.4882], [-78.5095, -1.4862], [-78.5092, -1.4843], [-78.5028, -1.4876], [-78.4922, -1.4878], [-78.4878, -1.49], [-78.4806, -1.4887], [-78.476, -1.486], [-78.4595, -1.481], [-78.4483, -1.4678], [-78.4233, -1.486], [-78.4114, -1.4879], [-78.396, -1.4849], [-78.3945, -1.486], [-78.392, -1.492]]]}}, {"type": "Feature", "properties": {"dpa": "060257", "nombre": "Pumallacta"}, "geometry": {"type": "Polygon", "coordinates": [[[-78.8211, -2.2389], [-78.8187, -2.2417], [-78.814, -2.2422], [-78.8094, -2.2469], [-78.8091, -2.2501], [-78.8045, -2.2551], [-78.7961, -2.257], [-78.793, -2.2617], [-78.7907, -2.2611], [-78.7893, -2.2622], [-78.7858, -2.2678], [-78.7852, -2.2754], [-78.7879, -2.2855], [-78.7892, -2.303], [-78.7913, -2.3067], [-78.7927, -2.3155], [-78.7992, -2.3238], [-78.7975, -2.315], [-78.7992, -2.3103], [-78.803, -2.306], [-78.8116, -2.3016], [-78.8157, -2.297], [-78.8199, -2.296], [-78.821, -2.2938], [-78.8214, -2.2787], [-78.8189, -2.2733], [-78.8199, -2.2721], [-78.8195, -2.2678], [-78.8213, -2.2663], [-78.8221, -2.2625], [-78.8205, -2.258], [-78.8226, -2.2535], [-78.8222, -2.2488], [-78.8255, -2.24], [-78.8211, -2.2389]]]}}, {"type": "Feature", "properties": {"dpa": "060157", "nombre": "Pungala"}, "geometry": {"type": "Polygon", "coordinates": [[[-78.4612, -1.9369], [-78.4644, -1.9385], [-78.4659, -1.942], [-78.4748, -1.942], [-78.4805, -1.9446], [-78.4835, -1.9436], [-78.4921, -1.9456], [-78.4972, -1.9492], [-78.5071, -1.9516], [-78.5114, -1.9513], [-78.5183, -1.9482], [-78.5228, -1.9484], [-78.5261, -1.946], [-78.5326, -1.9461], [-78.535, -1.9437], [-78.5362, -1.9392], [-78.5402, -1.9335], [-78.5404, -1.9315], [-78.538, -1.9269], [-78.5385, -1.9241], [-78.5373, -1.9215], [-78.5383, -1.9203], [-78.5371, -1.9194], [-78.5377, -1.9178], [-78.5365, -1.9151], [-78.5377, -1.9105], [-78.5395, -1.9089], [-78.5396, -1.9061], [-78.5414, -1.9037], [-78.5508, -1.895], [-78.5511, -1.8923], [-78.5566, -1.8913], [-78.5647, -1.8831], [-78.5698, -1.8826], [-78.5734, -1.8808], [-78.58, -1.8818], [-78.5846, -1.8847], [-78.5881, -1.8851], [-78.5898, -1.883], [-78.5941, -1.8831], [-78.5939, -1.8815], [-78.5969, -1.8808], [-78.6011, -1.8766], [-78.6032, -1.8761], [-78.6033, -1.8748], [-78.6064, -1.8724], [-78.6074, -1.8685], [-78.607, -1.8664], [-78.6042, -1.8644], [-78.6058, -1.8637], [-78.6048, -1.8627], [-78.6065, -1.8612], [-78.6074, -1.8581], [-78.6058, -1.8562], [-78.6101, -1.8535], [-78.6108, -1.8517], [-78.6086, -1.8508], [-78.6071, -1.8475], [-78.5985, -1.845], [-78.5968, -1.8429], [-78.5963, -1.8394], [-78.5976, -1.837], [-78.5968, -1.8363], [-78.5998, -1.8262], [-78.5997, -1.8208], [-78.596, -1.8159], [-78.5965, -1.8085], [-78.5986, -1.8045], [-78.595, -1.8009], [-78.5881, -1.8006], [-78.5853, -1.7992], [-78.5842, -1.795], [-78.5862, -1.7915], [-78.5794, -1.7921], [-78.5781, -1.7909], [-78.5757, -1.7926], [-78.573, -1.7981], [-78.5691, -1.7998], [-78.5649, -1.7991], [-78.5543, -1.8028], [-78.5526, -1.8056], [-78.5493, -1.8069], [-78.5446, -1.8073], [-78.5361, -1.8052], [-78.5278, -1.8074], [-78.519, -1.8056], [-78.5075, -1.8058], [-78.5012, -1.8006], [-78.5012, -1.7967], [-78.4985, -1.7952], [-78.497, -1.7918], [-78.4916, -1.7888], [-78.4683, -1.7939], [-78.4619, -1.7839], [-78.4449, -1.7659], [-78.4418, -1.7689], [-78.4404, -1.7727], [-78.4382, -1.7906], [-78.435, -1.7951], [-78.4238, -1.8002], [-78.4201, -1.8046], [-78.4207, -1.8098], [-78.4226, -1.8117], [-78.4198, -1.8207], [-78.4208, -1.8287], [-78.4135, -1.8369], [-78.4123, -1.8412], [-78.4094, -1.8443], [-78.4017, -1.8469], [-78.3969, -1.8532], [-78.399, -1.8582], [-78.403, -1.863], [-78.4034, -1.8668], [-78.4008, -1.8723], [-78.4036, -1.877], [-78.4198, -1.8841], [-78.4197, -1.8941], [-78.4293, -1.8975], [-78.434, -1.9093], [-78.4431, -1.911], [-78.4555, -1.9195], [-78.457, -1.9223], [-78.4581, -1.9306], [-78.4612, -1.9369]]]}}, {"type": "Feature", "properties": {"dpa": "060158", "nombre": "Punin"}, "geometry": {"type": "Polygon", "coordinates": [[[-78.6334, -1.739], [-78.6383, -1.7471], [-78.643, -1.7505], [-78.6457, -1.7556], [-78.6463, -1.7678], [-78.6504, -1.776], [-78.6469, -1.7804], [-78.6455, -1.7859], [-78.6495, -1.7913], [-78.6489, -1.7953], [-78.6599, -1.8008], [-78.6582, -1.8024], [-78.6558, -1.8098], [-78.6567, -1.8118], [-78.6645, -1.8082], [-78.6689, -1.805], [-78.6716, -1.8012], [-78.6756, -1.7998], [-78.6863, -1.7908], [-78.6889, -1.7916], [-78.6898, -1.7875], [-78.6973, -1.7746], [-78.6971, -1.7718], [-78.6997, -1.7705], [-78.7035, -1.7706], [-78.7048, -1.7683], [-78.7059, -1.7538], [-78.7088, -1.7491], [-78.708, -1.7449], [-78.7091, -1.7414], [-78.7027, -1.7391], [-78.7001, -1.7336], [-78.6969, -1.7321], [-78.6948, -1.7267], [-78.6903, -1.7229], [-78.6838, -1.7241], [-78.6715, -1.7303], [-78.6657, -1.7312], [-78.6627, -1.7301], [-78.6597, -1.7317], [-78.6568, -1.731], [-78.6509, -1.7326], [-78.6492, -1.7318], [-78.647, -1.7328], [-78.6478, -1.7373], [-78.6421, -1.7368], [-78.6393, -1.7345], [-78.6334, -1.739]]]}}, {"type": "Feature", "properties": {"dpa": "060159", "nombre": "Quimiag"}, "geometry": {"type": "Polygon", "coordinates": [[[-78.5152, -1.6082], [-78.5129, -1.6086], [-78.5114, -1.6106], [-78.5107, -1.6142], [-78.5124, -1.6171], [-78.5122, -1.6204], [-78.514, -1.6222], [-78.5131, -1.6288], [-78.5162, -1.6313], [-78.5165, -1.634], [-78.5131, -1.6357], [-78.5144, -1.6415], [-78.5129, -1.6509], [-78.5078, -1.6559], [-78.5035, -1.6577], [-78.4956, -1.6553], [-78.4889, -1.6584], [-78.4801, -1.6585], [-78.465, -1.665], [-78.4588, -1.6724], [-78.4515, -1.6727], [-78.4465, -1.6713], [-78.4389, -1.6731], [-78.4372, -1.6722], [-78.4301, -1.6747], [-78.4207, -1.6724], [-78.4192, -1.6701], [-78.4198, -1.6683], [-78.4089, -1.6747], [-78.4125, -1.6821], [-78.4174, -1.685], [-78.4304, -1.6847], [-78.4334, -1.6871], [-78.4352, -1.69], [-78.4369, -1.6983], [-78.443, -1.7046], [-78.4441, -1.7128], [-78.4508, -1.7269], [-78.4516, -1.7322], [-78.4533, -1.7352], [-78.4592, -1.7397], [-78.46, -1.7476], [-78.4611, -1.7494], [-78.4656, -1.7514], [-78.467, -1.7518], [-78.4694, -1.7485], [-78.4688, -1.7428], [-78.4706, -1.7399], [-78.4694, -1.7346], [-78.4718, -1.7312], [-78.471, -1.7276], [-78.4726, -1.7221], [-78.4763, -1.7166], [-78.4822, -1.7133], [-78.4888, -1.7075], [-78.4902, -1.7034], [-78.4892, -1.6969], [-78.496, -1.6894], [-78.4968, -1.6949], [-78.5013, -1.6997], [-78.5018, -1.7028], [-78.5056, -1.7058], [-78.5082, -1.7058], [-78.514, -1.7102], [-78.5153, -1.7154], [-78.5278, -1.7127], [-78.5397, -1.7116], [-78.5497, -1.7088], [-78.5547, -1.7106], [-78.5615, -1.7112], [-78.5655, -1.7139], [-78.5699, -1.7145], [-78.5783, -1.7065], [-78.5855, -1.7025], [-78.5902, -1.6931], [-78.5895, -1.6893], [-78.5958, -1.6855], [-78.5995, -1.6806], [-78.5959, -1.6791], [-78.5955, -1.6773], [-78.5924, -1.6773], [-78.5946, -1.671], [-78.5915, -1.6705], [-78.5879, -1.6681], [-78.5873, -1.6653], [-78.5856, -1.6637], [-78.5883, -1.6598], [-78.5818, -1.6509], [-78.5795, -1.6498], [-78.5747, -1.6444], [-78.5707, -1.6431], [-78.5699, -1.6401], [-78.5609, -1.6383], [-78.5581, -1.6325], [-78.5561, -1.6243], [-78.5574, -1.6213], [-78.5575, -1.6152], [-78.5539, -1.6123], [-78.5535, -1.6065], [-78.55, -1.6037], [-78.5467, -1.6038], [-78.5454, -1.6009], [-78.5458, -1.5987], [-78.5489, -1.5955], [-78.5486, -1.5918], [-78.5397, -1.5985], [-78.5385, -1.6021], [-78.5359, -1.6048], [-78.5287, -1.6034], [-78.5207, -1.6046], [-78.5152, -1.6082]]]}}, {"type": "Feature", "properties": {"dpa": "060150", "nombre": "Riobamba"}, "geometry": {"type": "Polygon", "coordinates": [[[-78.6378, -1.6387], [-78.6307, -1.6392], [-78.6273, -1.6436], [-78.6279, -1.6479], [-78.6237, -1.6508], [-78.6217, -1.6492], [-78.6172, -1.6483], [-78.6191, -1.6644], [-78.6173, -1.6637], [-78.6153, -1.6656], [-78.6139, -1.6645], [-78.6106, -1.6687], [-78.609, -1.6672], [-78.6073, -1.6675], [-78.6042, -1.6704], [-78.6064, -1.6747], [-78.5958, -1.6757], [-78.5959, -1.6791], [-78.6007, -1.6818], [-78.6037, -1.6802], [-78.6078, -1.682], [-78.6077, -1.684], [-78.6203, -1.6822], [-78.6222, -1.6901], [-78.6251, -1.6892], [-78.6287, -1.694], [-78.6319, -1.6894], [-78.6374, -1.6895], [-78.641, -1.6935], [-78.6443, -1.6903], [-78.647, -1.693], [-78.6472, -1.6959], [-78.6492, -1.6985], [-78.6582, -1.6993], [-78.6613, -1.6982], [-78.66, -1.6991], [-78.6599, -1.7012], [-78.6622, -1.7047], [-78.6688, -1.7074], [-78.67, -1.7092], [-78.676, -1.7106], [-78.6801, -1.7083], [-78.6794, -1.7064], [-78.6803, -1.7037], [-78.6791, -1.7013], [-78.6824, -1.6991], [-78.6875, -1.7003], [-78.6904, -1.6983], [-78.6937, -1.6999], [-78.7025, -1.6998], [-78.7057, -1.6989], [-78.7048, -1.6956], [-78.7079, -1.6925], [-78.7105, -1.6937], [-78.7138, -1.6932], [-78.7179, -1.69], [-78.7233, -1.6749], [-78.7135, -1.6698], [-78.7088, -1.6697], [-78.7056, -1.6676], [-78.7029, -1.67], [-78.6976, -1.6686], [-78.6913, -1.6714], [-78.6861, -1.6697], [-78.6825, -1.6701], [-78.6866, -1.663], [-78.689, -1.6631], [-78.6902, -1.6613], [-78.693, -1.6616], [-78.6942, -1.6602], [-78.6985, -1.6593], [-78.6962, -1.6555], [-78.6952, -1.6559], [-78.6938, -1.6543], [-78.6948, -1.6533], [-78.6923, -1.649], [-78.6906, -1.6491], [-78.6909, -1.6478], [-78.6884, -1.6478], [-78.6889, -1.6438], [-78.687, -1.6425], [-78.6858, -1.6433], [-78.6812, -1.64], [-78.683, -1.637], [-78.6789, -1.6354], [-78.6773, -1.6329], [-78.675, -1.6347], [-78.6741, -1.6383], [-78.6716, -1.6391], [-78.667, -1.6385], [-78.6639, -1.6431], [-78.6602, -1.6435], [-78.6585, -1.6456], [-78.6548, -1.6464], [-78.6525, -1.6485], [-78.6469, -1.6462], [-78.6449, -1.6434], [-78.6451, -1.6417], [-78.6406, -1.6382], [-78.6394, -1.6394], [-78.6378, -1.6387]]]}}, {"type": "Feature", "properties": {"dpa": "060754", "nombre": "San Andres"}, "geometry": {"type": "Polygon", "coordinates": [[[-78.7687, -1.434], [-78.7654, -1.4385], [-78.7559, -1.4434], [-78.7538, -1.4466], [-78.7464, -1.4513], [-78.7414, -1.4531], [-78.7381, -1.4565], [-78.7359, -1.4566], [-78.7324, -1.4634], [-78.7265, -1.4697], [-78.7209, -1.4804], [-78.7134, -1.489], [-78.7053, -1.4953], [-78.697, -1.4977], [-78.6929, -1.4963], [-78.6765, -1.4954], [-78.667, -1.4998], [-78.6802, -1.5016], [-78.6915, -1.5022], [-78.6951, -1.5013], [-78.6999, -1.5026], [-78.7052, -1.5085], [-78.7076, -1.509], [-78.7073, -1.5109], [-78.7099, -1.5139], [-78.7095, -1.5153], [-78.7157, -1.5199], [-78.7163, -1.5243], [-78.7189, -1.5275], [-78.718, -1.5296], [-78.7188, -1.532], [-78.716, -1.5334], [-78.7145, -1.536], [-78.7154, -1.5397], [-78.7131, -1.5421], [-78.7125, -1.5489], [-78.7087, -1.5543], [-78.7103, -1.5582], [-78.7134, -1.5606], [-78.7131, -1.5681], [-78.7162, -1.57], [-78.7128, -1.5752], [-78.7119, -1.5788], [-78.7041, -1.5832], [-78.7027, -1.5826], [-78.6976, -1.5842], [-78.6914, -1.5889], [-78.6888, -1.5938], [-78.6842, -1.5976], [-78.6814, -1.5977], [-78.6807, -1.5951], [-78.6789, -1.5943], [-78.6764, -1.598], [-78.6714, -1.6019], [-78.6669, -1.6012], [-78.6694, -1.6068], [-78.6664, -1.6148], [-78.6715, -1.6188], [-78.6794, -1.6209], [-78.6892, -1.6256], [-78.7116, -1.6258], [-78.7197, -1.6203], [-78.7205, -1.6194], [-78.7162, -1.6123], [-78.7159, -1.6077], [-78.7143, -1.6059], [-78.7256, -1.5996], [-78.7308, -1.586], [-78.7391, -1.5834], [-78.7432, -1.5795], [-78.7494, -1.5694], [-78.7544, -1.5679], [-78.7625, -1.5623], [-78.7641, -1.5595], [-78.7722, -1.5564], [-78.7816, -1.5507], [-78.7806, -1.5343], [-78.7872, -1.5272], [-78.7901, -1.5136], [-78.8, -1.4941], [-78.8514, -1.4705], [-78.841, -1.4642], [-78.8342, -1.463], [-78.8315, -1.4579], [-78.8293, -1.4562], [-78.8248, -1.4546], [-78.8201, -1.4545], [-78.8152, -1.4506], [-78.8103, -1.4514], [-78.8062, -1.4441], [-78.7963, -1.4431], [-78.7789, -1.4306], [-78.7728, -1.4299], [-78.7699, -1.4313], [-78.7687, -1.434]]]}}, {"type": "Feature", "properties": {"dpa": "060954", "nombre": "San Antonio De Bayushig"}, "geometry": {"type": "Polygon", "coordinates": [[[-78.5084, -1.5358], [-78.5111, -1.5405], [-78.5107, -1.5468], [-78.5131, -1.5486], [-78.5103, -1.5558], [-78.5149, -1.5588], [-78.5138, -1.5638], [-78.5236, -1.5591], [-78.5231, -1.557], [-78.5257, -1.5548], [-78.5259, -1.549], [-78.5276, -1.5463], [-78.5198, -1.5396], [-78.5084, -1.5358]]]}}, {"type": "Feature", "properties": {"dpa": "060755", "nombre": "San Gerardo De Pacaicaguan"}, "geometry": {"type": "Polygon", "coordinates": [[[-78.5955, -1.6331], [-78.5986, -1.6341], [-78.6015, -1.6371], [-78.6045, -1.6368], [-78.6085, -1.6421], [-78.6135, -1.6438], [-78.6167, -1.6463], [-78.6172, -1.6483], [-78.6217, -1.6492], [-78.6237, -1.6508], [-78.6279, -1.6479], [-78.6273, -1.6436], [-78.6307, -1.6392], [-78.6378, -1.6388], [-78.6348, -1.6354], [-78.6265, -1.6316], [-78.6237, -1.6312], [-78.6218, -1.6335], [-78.6186, -1.6293], [-78.6123, -1.6262], [-78.6097, -1.6227], [-78.6057, -1.6216], [-78.6058, -1.6231], [-78.604, -1.6244], [-78.6046, -1.626], [-78.6032, -1.6252], [-78.6034, -1.6266], [-78.6023, -1.6261], [-78.6019, -1.6276], [-78.5999, -1.6273], [-78.5967, -1.6295], [-78.5971, -1.6326], [-78.5955, -1.6331]]]}}, {"type": "Feature", "properties": {"dpa": "060756", "nombre": "San Isidro De Patulu"}, "geometry": {"type": "Polygon", "coordinates": [[[-78.6276, -1.5084], [-78.6294, -1.5123], [-78.6278, -1.517], [-78.6314, -1.5188], [-78.6379, -1.5296], [-78.6392, -1.5423], [-78.6371, -1.5516], [-78.638, -1.5559], [-78.6422, -1.5614], [-78.6438, -1.5672], [-78.6536, -1.5673], [-78.6589, -1.5738], [-78.661, -1.5789], [-78.661, -1.5835], [-78.6696, -1.5901], [-78.6694, -1.5942], [-78.6667, -1.5979], [-78.6669, -1.6012], [-78.6714, -1.6019], [-78.6764, -1.598], [-78.6789, -1.5943], [-78.6807, -1.5951], [-78.6814, -1.5977], [-78.6842, -1.5976], [-78.6888, -1.5938], [-78.6914, -1.5889], [-78.6976, -1.5842], [-78.7027, -1.5826], [-78.7041, -1.5832], [-78.7065, -1.581], [-78.7113, -1.5796], [-78.7162, -1.57], [-78.7131, -1.5681], [-78.7134, -1.5606], [-78.7103, -1.5582], [-78.7087, -1.5543], [-78.7125, -1.5489], [-78.7131, -1.5421], [-78.7154, -1.5397], [-78.7145, -1.536], [-78.716, -1.5334], [-78.7188, -1.532], [-78.718, -1.5296], [-78.7189, -1.5275], [-78.7163, -1.5243], [-78.7157, -1.5199], [-78.7095, -1.5153], [-78.7099, -1.5139], [-78.7073, -1.5109], [-78.7075, -1.5089], [-78.7054, -1.5086], [-78.6999, -1.5026], [-78.6969, -1.5017], [-78.6783, -1.5015], [-78.6579, -1.4974], [-78.6508, -1.4997], [-78.6388, -1.4936], [-78.6373, -1.4934], [-78.6365, -1.4946], [-78.6366, -1.4931], [-78.6337, -1.4959], [-78.6322, -1.5051], [-78.6299, -1.5078], [-78.6276, -1.5084]]]}}, {"type": "Feature", "properties": {"dpa": "060757", "nombre": "San Jose Del Chazo"}, "geometry": {"type": "Polygon", "coordinates": [[[-78.5284, -1.5121], [-78.5264, -1.5168], [-78.5235, -1.5199], [-78.5385, -1.528], [-78.5502, -1.5445], [-78.5549, -1.5429], [-78.5526, -1.5518], [-78.5672, -1.5523], [-78.5701, -1.5499], [-78.5734, -1.545], [-78.5728, -1.5427], [-78.574, -1.5404], [-78.5711, -1.5398], [-78.5721, -1.5361], [-78.5745, -1.5343], [-78.5745, -1.5319], [-78.5711, -1.5277], [-78.5715, -1.5265], [-78.5681, -1.5236], [-78.568, -1.5204], [-78.5605, -1.5146], [-78.5642, -1.5148], [-78.5647, -1.5133], [-78.5427, -1.5069], [-78.535, -1.5099], [-78.5312, -1.51], [-78.5284, -1.5121]]]}}, {"type": "Feature", "properties": {"dpa": "060160", "nombre": "San Juan"}, "geometry": {"type": "Polygon", "coordinates": [[[-78.8514, -1.4705], [-78.8, -1.4941], [-78.7901, -1.5136], [-78.7872, -1.5272], [-78.7806, -1.5343], [-78.7813, -1.5522], [-78.7775, -1.5583], [-78.7713, -1.5622], [-78.7698, -1.5686], [-78.7722, -1.5705], [-78.7741, -1.5742], [-78.7758, -1.5818], [-78.7741, -1.6026], [-78.7714, -1.6074], [-78.7749, -1.6181], [-78.7736, -1.6223], [-78.7661, -1.6314], [-78.762, -1.6332], [-78.7591, -1.6362], [-78.7607, -1.6402], [-78.7687, -1.6475], [-78.7704, -1.646], [-78.7789, -1.6442], [-78.7802, -1.6415], [-78.784, -1.6404], [-78.7863, -1.6436], [-78.7917, -1.6471], [-78.7934, -1.6558], [-78.7964, -1.657], [-78.7973, -1.6614], [-78.7989, -1.6621], [-78.8019, -1.662], [-78.8063, -1.6586], [-78.8101, -1.6618], [-78.8129, -1.6614], [-78.8169, -1.6501], [-78.8206, -1.6459], [-78.8225, -1.6474], [-78.8243, -1.6524], [-78.8282, -1.656], [-78.8452, -1.665], [-78.8441, -1.6563], [-78.8513, -1.6438], [-78.8517, -1.6175], [-78.8632, -1.6143], [-78.8677, -1.6119], [-78.872, -1.6117], [-78.8739, -1.61], [-78.8782, -1.6106], [-78.8909, -1.5996], [-78.897, -1.5998], [-78.8965, -1.5942], [-78.8987, -1.5892], [-78.8977, -1.5851], [-78.892, -1.5809], [-78.8863, -1.5638], [-78.8841, -1.5522], [-78.8851, -1.5465], [-78.8834, -1.5406], [-78.8854, -1.5301], [-78.8801, -1.5205], [-78.8683, -1.5075], [-78.8764, -1.4949], [-78.8831, -1.472], [-78.8835, -1.464], [-78.8763, -1.4627], [-78.8715, -1.4682], [-78.8599, -1.4698], [-78.8561, -1.4715], [-78.8514, -1.4705]]]}}, {"type": "Feature", "properties": {"dpa": "060161", "nombre": "San Luis"}, "geometry": {"type": "Polygon", "coordinates": [[[-78.6077, -1.684], [-78.6054, -1.6962], [-78.6055, -1.6994], [-78.6068, -1.7004], [-78.6058, -1.7055], [-78.6087, -1.7073], [-78.607, -1.7122], [-78.6119, -1.713], [-78.6161, -1.7167], [-78.6185, -1.7143], [-78.6221, -1.7153], [-78.6214, -1.7186], [-78.6248, -1.721], [-78.6265, -1.7203], [-78.6293, -1.7254], [-78.6306, -1.7307], [-78.63, -1.7335], [-78.6312, -1.7372], [-78.6334, -1.739], [-78.6393, -1.7345], [-78.6421, -1.7368], [-78.6478, -1.7373], [-78.647, -1.7328], [-78.6492, -1.7318], [-78.6509, -1.7326], [-78.6568, -1.731], [-78.6597, -1.7317], [-78.6627, -1.7301], [-78.6657, -1.7312], [-78.6715, -1.7303], [-78.6889, -1.7225], [-78.6766, -1.716], [-78.6753, -1.7098], [-78.67, -1.7092], [-78.6688, -1.7074], [-78.6619, -1.7044], [-78.6599, -1.7012], [-78.66, -1.6991], [-78.6613, -1.6982], [-78.6582, -1.6993], [-78.6494, -1.6986], [-78.6472, -1.6959], [-78.647, -1.693], [-78.6443, -1.6903], [-78.641, -1.6935], [-78.6374, -1.6895], [-78.6319, -1.6894], [-78.6287, -1.694], [-78.6251, -1.6892], [-78.6222, -1.6901], [-78.6203, -1.6822], [-78.6077, -1.684]]]}}, {"type": "Feature", "properties": {"dpa": "060758", "nombre": "Santa Fe De Galan"}, "geometry": {"type": "Polygon", "coordinates": [[[-78.5399, -1.4798], [-78.5318, -1.4829], [-78.5284, -1.4888], [-78.5276, -1.492], [-78.5284, -1.5121], [-78.5312, -1.51], [-78.535, -1.5099], [-78.5427, -1.5069], [-78.5596, -1.5118], [-78.5656, -1.5085], [-78.5703, -1.5081], [-78.5709, -1.5092], [-78.5758, -1.5098], [-78.5934, -1.5074], [-78.5988, -1.5079], [-78.6029, -1.5123], [-78.6108, -1.5128], [-78.6122, -1.5152], [-78.622, -1.5206], [-78.6249, -1.5202], [-78.629, -1.5158], [-78.6294, -1.5123], [-78.6276, -1.5084], [-78.6204, -1.5061], [-78.6164, -1.5025], [-78.6156, -1.5], [-78.6085, -1.4965], [-78.6077, -1.4923], [-78.6029, -1.4894], [-78.5982, -1.4894], [-78.5965, -1.4908], [-78.5857, -1.4902], [-78.5845, -1.4881], [-78.5733, -1.48], [-78.5706, -1.4786], [-78.5674, -1.4791], [-78.5634, -1.4758], [-78.5601, -1.4749], [-78.555, -1.476], [-78.5517, -1.475], [-78.5466, -1.4754], [-78.5399, -1.4798]]]}}, {"type": "Feature", "properties": {"dpa": "060354", "nombre": "Santiago De Quito (cab. En San Antonio De Quito)"}, "geometry": {"type": "Polygon", "coordinates": [[[-78.7082, -1.7442], [-78.7088, -1.7491], [-78.7059, -1.7538], [-78.7048, -1.7683], [-78.7035, -1.7706], [-78.6997, -1.7705], [-78.6971, -1.7718], [-78.6973, -1.7746], [-78.6939, -1.7795], [-78.6929, -1.785], [-78.7035, -1.7981], [-78.7046, -1.8044], [-78.7133, -1.818], [-78.7175, -1.8296], [-78.7259, -1.8372], [-78.7287, -1.8437], [-78.7319, -1.8476], [-78.7356, -1.8428], [-78.7362, -1.8382], [-78.7379, -1.8357], [-78.736, -1.8226], [-78.7369, -1.8159], [-78.7386, -1.8129], [-78.7382, -1.8098], [-78.74, -1.8065], [-78.74, -1.8025], [-78.7376, -1.7896], [-78.741, -1.7826], [-78.7476, -1.7773], [-78.7528, -1.7636], [-78.7587, -1.7526], [-78.7624, -1.7237], [-78.7575, -1.7189], [-78.7527, -1.7185], [-78.7492, -1.72], [-78.7441, -1.72], [-78.7359, -1.7134], [-78.7346, -1.7223], [-78.732, -1.7259], [-78.7313, -1.7359], [-78.7275, -1.7343], [-78.7224, -1.7385], [-78.7216, -1.7407], [-78.7122, -1.7411], [-78.7082, -1.7442]]]}}, {"type": "Feature", "properties": {"dpa": "060258", "nombre": "Sevilla"}, "geometry": {"type": "Polygon", "coordinates": [[[-78.8255, -2.24], [-78.8222, -2.2488], [-78.8226, -2.2535], [-78.8205, -2.258], [-78.8221, -2.2625], [-78.8213, -2.2663], [-78.8195, -2.2678], [-78.8199, -2.2721], [-78.8189, -2.2733], [-78.8214, -2.2787], [-78.8209, -2.2941], [-78.8191, -2.2964], [-78.8156, -2.2971], [-78.8116, -2.3016], [-78.803, -2.306], [-78.7976, -2.3136], [-78.7992, -2.3238], [-78.8064, -2.3284], [-78.81, -2.3363], [-78.8144, -2.3339], [-78.8204, -2.3258], [-78.823, -2.3251], [-78.8272, -2.3212], [-78.8392, -2.3135], [-78.8453, -2.3047], [-78.8429, -2.297], [-78.8432, -2.2894], [-78.8368, -2.281], [-78.8344, -2.2711], [-78.8313, -2.2642], [-78.8329, -2.255], [-78.8278, -2.246], [-78.8299, -2.2396], [-78.8255, -2.24]]]}}, {"type": "Feature", "properties": {"dpa": "060259", "nombre": "Sibambe"}, "geometry": {"type": "Polygon", "coordinates": [[[-78.8952, -2.1049], [-78.8902, -2.1086], [-78.8854, -2.11], [-78.8831, -2.1138], [-78.8759, -2.1113], [-78.8725, -2.1117], [-78.8633, -2.1213], [-78.8667, -2.1307], [-78.8732, -2.1339], [-78.8809, -2.1413], [-78.8844, -2.1483], [-78.8845, -2.1517], [-78.8909, -2.1632], [-78.8903, -2.1672], [-78.8832, -2.1725], [-78.8713, -2.1778], [-78.8666, -2.1845], [-78.8584, -2.1861], [-78.8543, -2.1916], [-78.8513, -2.193], [-78.8504, -2.1958], [-78.8522, -2.1994], [-78.8541, -2.2006], [-78.8542, -2.2028], [-78.8557, -2.2038], [-78.8562, -2.207], [-78.8586, -2.2104], [-78.8658, -2.2136], [-78.8686, -2.2168], [-78.8719, -2.235], [-78.8759, -2.239], [-78.8785, -2.2438], [-78.8883, -2.2476], [-78.8957, -2.2527], [-78.9026, -2.2547], [-78.9092, -2.2603], [-78.9128, -2.2601], [-78.9163, -2.2644], [-78.922, -2.2651], [-78.9322, -2.2641], [-78.9378, -2.2659], [-78.9403, -2.2651], [-78.9491, -2.2682], [-78.951, -2.2679], [-78.9521, -2.2707], [-78.9554, -2.2726], [-78.9575, -2.2725], [-78.9568, -2.2684], [-78.9596, -2.2624], [-78.9601, -2.2548], [-78.9586, -2.2508], [-78.9549, -2.2479], [-78.9538, -2.2455], [-78.9537, -2.2357], [-78.9601, -2.2266], [-78.9592, -2.2233], [-78.9606, -2.2143], [-78.9589, -2.2088], [-78.9558, -2.2065], [-78.954, -2.2043], [-78.9539, -2.2016], [-78.9513, -2.1993], [-78.9593, -2.2005], [-78.9623, -2.2053], [-78.9656, -2.2066], [-78.9661, -2.2051], [-78.9673, -2.2076], [-78.9709, -2.208], [-78.9744, -2.2118], [-78.9825, -2.2164], [-78.988, -2.2161], [-78.9901, -2.2146], [-78.9843, -2.2094], [-78.9831, -2.2053], [-78.9847, -2.2022], [-78.9936, -2.1966], [-78.9992, -2.1947], [-79.0034, -2.188], [-79.0001, -2.1902], [-78.9899, -2.1931], [-78.9866, -2.1908], [-78.9808, -2.1915], [-78.9741, -2.1893], [-78.9696, -2.1844], [-78.9688, -2.1917], [-78.9652, -2.1906], [-78.9585, -2.1917], [-78.9552, -2.191], [-78.949, -2.1879], [-78.9435, -2.1876], [-78.94, -2.1846], [-78.9388, -2.1881], [-78.9355, -2.1863], [-78.9362, -2.1813], [-78.9311, -2.1738], [-78.9312, -2.1617], [-78.938, -2.1524], [-78.937, -2.1487], [-78.9419, -2.1331], [-78.9408, -2.1315], [-78.9412, -2.1256], [-78.9437, -2.121], [-78.9485, -2.118], [-78.9432, -2.1161], [-78.9357, -2.1186], [-78.9347, -2.1172], [-78.9321, -2.1178], [-78.9282, -2.1146], [-78.9194, -2.1164], [-78.9145, -2.1133], [-78.909, -2.1136], [-78.9072, -2.1127], [-78.9063, -2.1046], [-78.9018, -2.1079], [-78.9001, -2.106], [-78.8952, -2.1049]]]}}, {"type": "Feature", "properties": {"dpa": "060260", "nombre": "Tixan"}, "geometry": {"type": "Polygon", "coordinates": [[[-78.6709, -2.1567], [-78.6823, -2.1798], [-78.6781, -2.192], [-78.6905, -2.1915], [-78.7001, -2.1829], [-78.7041, -2.1775], [-78.7093, -2.1744], [-78.7168, -2.1732], [-78.7217, -2.1796], [-78.7222, -2.1829], [-78.7284, -2.1853], [-78.7373, -2.1933], [-78.7388, -2.198], [-78.7426, -2.1991], [-78.7433, -2.2022], [-78.7482, -2.1937], [-78.7517, -2.1915], [-78.7565, -2.1912], [-78.7654, -2.1951], [-78.7739, -2.1958], [-78.7863, -2.2027], [-78.809, -2.205], [-78.8208, -2.2126], [-78.8206, -2.2064], [-78.8186, -2.2025], [-78.8169, -2.2028], [-78.8148, -2.2013], [-78.8141, -2.1983], [-78.8114, -2.1961], [-78.8244, -2.188], [-78.8334, -2.184], [-78.8394, -2.1863], [-78.8476, -2.1787], [-78.8469, -2.176], [-78.8417, -2.1719], [-78.8434, -2.1692], [-78.8425, -2.1615], [-78.8437, -2.1574], [-78.8417, -2.1535], [-78.8444, -2.1489], [-78.8483, -2.1456], [-78.852, -2.1242], [-78.8511, -2.1194], [-78.853, -2.1173], [-78.8569, -2.1177], [-78.8552, -2.1152], [-78.8558, -2.1115], [-78.8529, -2.1093], [-78.8453, -2.11], [-78.842, -2.1038], [-78.8418, -2.0994], [-78.831, -2.1008], [-78.8282, -2.1089], [-78.8226, -2.1098], [-78.8195, -2.109], [-78.8122, -2.1143], [-78.8077, -2.1148], [-78.8053, -2.1186], [-78.8004, -2.1222], [-78.7968, -2.1312], [-78.794, -2.1306], [-78.786, -2.1225], [-78.7785, -2.1176], [-78.7773, -2.1146], [-78.7668, -2.1085], [-78.7631, -2.0993], [-78.7515, -2.0917], [-78.7459, -2.0908], [-78.746, -2.09], [-78.7421, -2.0885], [-78.7409, -2.09], [-78.7406, -2.0949], [-78.7389, -2.095], [-78.7351, -2.1048], [-78.7315, -2.1081], [-78.7321, -2.1116], [-78.731, -2.1148], [-78.7246, -2.1212], [-78.7137, -2.12], [-78.7132, -2.1244], [-78.7073, -2.13], [-78.7066, -2.1427], [-78.7014, -2.1409], [-78.699, -2.1489], [-78.69, -2.1568], [-78.6709, -2.1567]]]}}, {"type": "Feature", "properties": {"dpa": "060759", "nombre": "Valparaiso"}, "geometry": {"type": "Polygon", "coordinates": [[[-78.619, -1.5186], [-78.6206, -1.5236], [-78.6125, -1.5299], [-78.6098, -1.5336], [-78.6004, -1.5329], [-78.5938, -1.5378], [-78.5914, -1.5425], [-78.5921, -1.5472], [-78.5888, -1.5566], [-78.5881, -1.5635], [-78.5899, -1.5771], [-78.5867, -1.5844], [-78.5947, -1.586], [-78.5988, -1.5904], [-78.6021, -1.5905], [-78.6007, -1.5853], [-78.6024, -1.5816], [-78.6023, -1.5787], [-78.6135, -1.5694], [-78.6171, -1.5625], [-78.6227, -1.5569], [-78.6261, -1.55], [-78.6264, -1.5445], [-78.6301, -1.5379], [-78.6303, -1.5354], [-78.6379, -1.5296], [-78.6314, -1.5188], [-78.6278, -1.517], [-78.6235, -1.5208], [-78.619, -1.5186]]]}}, {"type": "Feature", "properties": {"dpa": "060350", "nombre": "Villa La Union (cajabamba)"}, "geometry": {"type": "Polygon", "coordinates": [[[-78.7934, -1.6558], [-78.7886, -1.6662], [-78.782, -1.67], [-78.7755, -1.671], [-78.7717, -1.67], [-78.7689, -1.6653], [-78.7641, -1.6623], [-78.7623, -1.6597], [-78.7588, -1.6597], [-78.7565, -1.6575], [-78.7546, -1.6599], [-78.7522, -1.6591], [-78.7513, -1.6578], [-78.7518, -1.6525], [-78.7508, -1.6516], [-78.7424, -1.6509], [-78.7402, -1.6558], [-78.7368, -1.6563], [-78.7345, -1.6551], [-78.7308, -1.6562], [-78.7305, -1.6593], [-78.7288, -1.659], [-78.7277, -1.6569], [-78.7288, -1.6552], [-78.7278, -1.6548], [-78.7242, -1.6555], [-78.7232, -1.6545], [-78.7226, -1.6563], [-78.7198, -1.656], [-78.7186, -1.6572], [-78.7206, -1.6601], [-78.7187, -1.6644], [-78.7187, -1.669], [-78.7168, -1.6719], [-78.7236, -1.6755], [-78.7209, -1.6826], [-78.7275, -1.6816], [-78.7322, -1.6787], [-78.7328, -1.6804], [-78.7317, -1.6844], [-78.732, -1.704], [-78.7288, -1.7099], [-78.7373, -1.7142], [-78.7441, -1.72], [-78.7492, -1.72], [-78.7527, -1.7185], [-78.7575, -1.7189], [-78.7624, -1.7237], [-78.7587, -1.7526], [-78.7528, -1.7636], [-78.7476, -1.7773], [-78.741, -1.7826], [-78.7376, -1.7896], [-78.7399, -1.8003], [-78.74, -1.8065], [-78.7369, -1.8159], [-78.7366, -1.827], [-78.7461, -1.8268], [-78.7588, -1.8245], [-78.7661, -1.8289], [-78.7762, -1.8315], [-78.7767, -1.8209], [-78.7802, -1.8146], [-78.7792, -1.8105], [-78.7891, -1.7985], [-78.7906, -1.7927], [-78.7977, -1.7928], [-78.8021, -1.7874], [-78.8031, -1.7802], [-78.8067, -1.7731], [-78.8053, -1.7643], [-78.8173, -1.7664], [-78.8235, -1.7573], [-78.8317, -1.7538], [-78.8324, -1.7513], [-78.8358, -1.7534], [-78.8478, -1.7484], [-78.8538, -1.7516], [-78.8663, -1.7492], [-78.8729, -1.7518], [-78.8817, -1.744], [-78.8793, -1.7378], [-78.8786, -1.7315], [-78.8769, -1.7297], [-78.8774, -1.7274], [-78.8741, -1.7221], [-78.8708, -1.7197], [-78.8668, -1.7193], [-78.8659, -1.7167], [-78.8668, -1.7117], [-78.8636, -1.6956], [-78.8603, -1.6901], [-78.8626, -1.6797], [-78.861, -1.6758], [-78.8558, -1.6727], [-78.8482, -1.6721], [-78.846, -1.67], [-78.8453, -1.6649], [-78.8282, -1.656], [-78.8243, -1.6524], [-78.8225, -1.6474], [-78.8208, -1.6459], [-78.8173, -1.6493], [-78.8141, -1.6594], [-78.8123, -1.6618], [-78.8101, -1.6618], [-78.8063, -1.6586], [-78.8019, -1.662], [-78.7984, -1.6619], [-78.7968, -1.66], [-78.7964, -1.657], [-78.7934, -1.6558]]]}}]}